{"type": "FeatureCollection", "meta": {"iata": "BER", "name": "Berlin Brandenburg", "city": "Berlin", "center": [52.3648, 13.5095], "elev_m": 47, "source": "OpenStreetMap (© OpenStreetMap contributors, ODbL)"}, "features": [{"type": "Feature", "properties": {"kind": "terminal", "h": 18.0, "name": "GAT"}, "geometry": {"type": "Polygon", "coordinates": [[[13.520987, 52.370638], [13.521798, 52.370565], [13.52188, 52.37044], [13.521828, 52.370427], [13.521235, 52.370478], [13.520895, 52.370509], [13.520849, 52.370531], [13.520987, 52.370638]]]}}, {"type": "Feature", "properties": {"kind": "building", "h": 9.0, "name": "Lufthansa Technik"}, "geometry": {"type": "Polygon", "coordinates": [[[13.525291, 52.372821], [13.525978, 52.372442], [13.525655, 52.372224], [13.524956, 52.371751], [13.52464, 52.371537], [13.524574, 52.371573], [13.524544, 52.37159], [13.524333, 52.371706], [13.524286, 52.371732], [13.523953, 52.371915], [13.525291, 52.372821]]]}}, {"type": "Feature", "properties": {"kind": "building", "h": 8.0, "name": "Y013"}, "geometry": {"type": "Polygon", "coordinates": [[[13.523758, 52.371781], [13.524155, 52.37156], [13.52415, 52.371557], [13.524175, 52.371543], [13.524059, 52.371463], [13.524036, 52.371477], [13.523942, 52.371415], [13.524002, 52.371382], [13.523975, 52.371365], [13.523982, 52.37136], [13.523949, 52.371338], [13.523804, 52.371241], [13.523738, 52.371276], [13.523449, 52.371079], [13.52305, 52.3713], [13.523758, 52.371781]]]}}, {"type": "Feature", "properties": {"kind": "building", "h": 9.0, "name": "Flughafenfeuerwehr Nord"}, "geometry": {"type": "Polygon", "coordinates": [[[13.506499, 52.38107], [13.506151, 52.380982], [13.506138, 52.38096], [13.506092, 52.380949], [13.506054, 52.380955], [13.506022, 52.381001], [13.5057, 52.380917], [13.505213, 52.38079], [13.505221, 52.380782], [13.505097, 52.38075], [13.504869, 52.380691], [13.504862, 52.380701], [13.504806, 52.380687], [13.50475, 52.380771], [13.504804, 52.380784], [13.504782, 52.380818], [13.505139, 52.380907], [13.505124, 52.380927], [13.505915, 52.381133], [13.506365, 52.381245], [13.506396, 52.381199], [13.50641, 52.381203], [13.506499, 52.38107]]]}}, {"type": "Feature", "properties": {"kind": "building", "h": 9.0, "name": ""}, "geometry": {"type": "Polygon", "coordinates": [[[13.52343, 52.369701], [13.523452, 52.369679], [13.523711, 52.369425], [13.52325, 52.369248], [13.523102, 52.369393], [13.522968, 52.369524], [13.522989, 52.369532], [13.52343, 52.369701]]]}}, {"type": "Feature", "properties": {"kind": "building", "h": 9.0, "name": ""}, "geometry": {"type": "Polygon", "coordinates": [[[13.523944, 52.369907], [13.524204, 52.369654], [13.524231, 52.369631], [13.523928, 52.369513], [13.52388, 52.369559], [13.523807, 52.369531], [13.523668, 52.369664], [13.523737, 52.369691], [13.523662, 52.369762], [13.523636, 52.369787], [13.523944, 52.369907]]]}}, {"type": "Feature", "properties": {"kind": "building", "h": 9.0, "name": ""}, "geometry": {"type": "Polygon", "coordinates": [[[13.523431, 52.369979], [13.522854, 52.369589], [13.522669, 52.369692], [13.523246, 52.37008], [13.523431, 52.369979]]]}}, {"type": "Feature", "properties": {"kind": "building", "h": 9.0, "name": ""}, "geometry": {"type": "Polygon", "coordinates": [[[13.518749, 52.370583], [13.518501, 52.370425], [13.518374, 52.370499], [13.518622, 52.370657], [13.518749, 52.370583]]]}}, {"type": "Feature", "properties": {"kind": "building", "h": 9.0, "name": ""}, "geometry": {"type": "Polygon", "coordinates": [[[13.529354, 52.374307], [13.529572, 52.374187], [13.529267, 52.373982], [13.529049, 52.374102], [13.529354, 52.374307]]]}}, {"type": "Feature", "properties": {"kind": "building", "h": 9.0, "name": ""}, "geometry": {"type": "Polygon", "coordinates": [[[13.530367, 52.374462], [13.530527, 52.374349], [13.530373, 52.374269], [13.530214, 52.374382], [13.530367, 52.374462]]]}}, {"type": "Feature", "properties": {"kind": "building", "h": 9.0, "name": ""}, "geometry": {"type": "Polygon", "coordinates": [[[13.530217, 52.374804], [13.530495, 52.374606], [13.530358, 52.374535], [13.530081, 52.374733], [13.530217, 52.374804]]]}}, {"type": "Feature", "properties": {"kind": "building", "h": 9.0, "name": ""}, "geometry": {"type": "Polygon", "coordinates": [[[13.520082, 52.370121], [13.519971, 52.370036], [13.519827, 52.370106], [13.519939, 52.370191], [13.520082, 52.370121]]]}}, {"type": "Feature", "properties": {"kind": "building", "h": 9.0, "name": ""}, "geometry": {"type": "Polygon", "coordinates": [[[13.520037, 52.370263], [13.519956, 52.370201], [13.51964, 52.370353], [13.519721, 52.370416], [13.520037, 52.370263]]]}}, {"type": "Feature", "properties": {"kind": "building", "h": 9.0, "name": ""}, "geometry": {"type": "Polygon", "coordinates": [[[13.51918, 52.370213], [13.519232, 52.369966], [13.519255, 52.369968], [13.519275, 52.369873], [13.518923, 52.369846], [13.518902, 52.369944], [13.519101, 52.369959], [13.519049, 52.370202], [13.51918, 52.370213]]]}}, {"type": "Feature", "properties": {"kind": "building", "h": 9.0, "name": ""}, "geometry": {"type": "Polygon", "coordinates": [[[13.519137, 52.370413], [13.518988, 52.370375], [13.518939, 52.370448], [13.519088, 52.370485], [13.519137, 52.370413]]]}}, {"type": "Feature", "properties": {"kind": "building", "h": 9.0, "name": ""}, "geometry": {"type": "Polygon", "coordinates": [[[13.519564, 52.370523], [13.519414, 52.370484], [13.519365, 52.370556], [13.519515, 52.370594], [13.519564, 52.370523]]]}}, {"type": "Feature", "properties": {"kind": "building", "h": 70.0, "name": "DFS-Tower"}, "geometry": {"type": "Polygon", "coordinates": [[[13.499544, 52.362706], [13.499679, 52.362738], [13.499703, 52.3627], [13.499731, 52.362707], [13.49979, 52.362614], [13.499761, 52.362608], [13.499828, 52.362502], [13.499696, 52.36247], [13.499641, 52.362558], [13.499632, 52.362573], [13.499629, 52.362575], [13.499499, 52.362546], [13.499489, 52.362561], [13.499438, 52.362638], [13.49947, 52.362645], [13.499568, 52.362669], [13.499544, 52.362706]]]}}, {"type": "Feature", "properties": {"kind": "building", "h": 12.0, "name": "DFS-Technik"}, "geometry": {"type": "Polygon", "coordinates": [[[13.499455, 52.362307], [13.498941, 52.362187], [13.498781, 52.362441], [13.499295, 52.362562], [13.49932, 52.362523], [13.499341, 52.362489], [13.499455, 52.362307]]]}}, {"type": "Feature", "properties": {"kind": "building", "h": 9.0, "name": ""}, "geometry": {"type": "Polygon", "coordinates": [[[13.500425, 52.361879], [13.500522, 52.361903], [13.500586, 52.361804], [13.500509, 52.361785], [13.500489, 52.36178], [13.500425, 52.361879]]]}}, {"type": "Feature", "properties": {"kind": "building", "h": 9.0, "name": ""}, "geometry": {"type": "Polygon", "coordinates": [[[13.529465, 52.373949], [13.529629, 52.373858], [13.529362, 52.373678], [13.529199, 52.373769], [13.529465, 52.373949]]]}}, {"type": "Feature", "properties": {"kind": "building", "h": 9.0, "name": ""}, "geometry": {"type": "Polygon", "coordinates": [[[13.522932, 52.369924], [13.522508, 52.369818], [13.52245, 52.369909], [13.522827, 52.370003], [13.522932, 52.369924]]]}}, {"type": "Feature", "properties": {"kind": "building", "h": 9.0, "name": ""}, "geometry": {"type": "Polygon", "coordinates": [[[13.529932, 52.37148], [13.529964, 52.37148], [13.529964, 52.37146], [13.529932, 52.37146], [13.529932, 52.37148]]]}}, {"type": "Feature", "properties": {"kind": "building", "h": 9.0, "name": ""}, "geometry": {"type": "Polygon", "coordinates": [[[13.526803, 52.373126], [13.526848, 52.373156], [13.526948, 52.3731], [13.526763, 52.372977], [13.526663, 52.373032], [13.526769, 52.373103], [13.526744, 52.373117], [13.526778, 52.373139], [13.526803, 52.373126]]]}}, {"type": "Feature", "properties": {"kind": "building", "h": 9.0, "name": ""}, "geometry": {"type": "Polygon", "coordinates": [[[13.522508, 52.369818], [13.522546, 52.369763], [13.522538, 52.36976], [13.522358, 52.369715], [13.522074, 52.370149], [13.522261, 52.370198], [13.522378, 52.370018], [13.522424, 52.369949], [13.52245, 52.369909], [13.522508, 52.369818]]]}}, {"type": "Feature", "properties": {"kind": "building", "h": 4.0, "name": "BER Geb. Y024"}, "geometry": {"type": "Polygon", "coordinates": [[[13.524411, 52.370602], [13.524871, 52.370896], [13.524995, 52.370826], [13.524528, 52.370531], [13.524411, 52.370602]]]}}, {"type": "Feature", "properties": {"kind": "building", "h": 9.0, "name": ""}, "geometry": {"type": "Polygon", "coordinates": [[[13.52614, 52.373125], [13.525665, 52.372802], [13.525528, 52.372877], [13.526003, 52.3732], [13.52614, 52.373125]]]}}, {"type": "Feature", "properties": {"kind": "building", "h": 9.0, "name": ""}, "geometry": {"type": "Polygon", "coordinates": [[[13.527832, 52.373097], [13.527689, 52.373175], [13.528462, 52.373701], [13.528605, 52.373623], [13.527832, 52.373097]]]}}, {"type": "Feature", "properties": {"kind": "building", "h": 9.0, "name": ""}, "geometry": {"type": "Polygon", "coordinates": [[[13.522932, 52.369924], [13.522827, 52.370003], [13.5236, 52.370522], [13.523718, 52.370456], [13.522932, 52.369924]]]}}, {"type": "Feature", "properties": {"kind": "building", "h": 9.0, "name": ""}, "geometry": {"type": "Polygon", "coordinates": [[[13.525562, 52.371568], [13.525427, 52.371642], [13.525535, 52.371715], [13.525977, 52.372016], [13.526032, 52.371986], [13.52609, 52.372025], [13.52617, 52.371981], [13.525562, 52.371568]]]}}, {"type": "Feature", "properties": {"kind": "building", "h": 9.0, "name": ""}, "geometry": {"type": "Polygon", "coordinates": [[[13.526404, 52.372104], [13.526381, 52.372116], [13.526465, 52.372173], [13.526514, 52.372146], [13.526637, 52.372229], [13.526696, 52.372197], [13.526572, 52.372113], [13.526559, 52.372121], [13.526348, 52.371977], [13.526328, 52.371964], [13.526256, 52.372004], [13.526404, 52.372104]]]}}, {"type": "Feature", "properties": {"kind": "building", "h": 9.0, "name": ""}, "geometry": {"type": "Polygon", "coordinates": [[[13.526697, 52.37285], [13.526228, 52.372535], [13.526116, 52.372597], [13.52597, 52.372678], [13.52644, 52.372993], [13.526697, 52.37285]]]}}, {"type": "Feature", "properties": {"kind": "building", "h": 9.0, "name": ""}, "geometry": {"type": "Polygon", "coordinates": [[[13.52597, 52.372678], [13.526116, 52.372597], [13.526071, 52.372568], [13.525926, 52.372648], [13.52597, 52.372678]]]}}, {"type": "Feature", "properties": {"kind": "building", "h": 9.0, "name": ""}, "geometry": {"type": "Polygon", "coordinates": [[[13.508455, 52.375684], [13.508527, 52.3757], [13.508554, 52.375658], [13.508482, 52.375642], [13.50847, 52.37566], [13.508455, 52.375684]]]}}, {"type": "Feature", "properties": {"kind": "building", "h": 9.0, "name": ""}, "geometry": {"type": "Polygon", "coordinates": [[[13.521892, 52.378828], [13.522169, 52.378897], [13.52222, 52.378821], [13.521942, 52.378753], [13.521892, 52.378828]]]}}, {"type": "Feature", "properties": {"kind": "building", "h": 9.0, "name": "BVD Werkstatt"}, "geometry": {"type": "Polygon", "coordinates": [[[13.524135, 52.361775], [13.523645, 52.362542], [13.524377, 52.362716], [13.524868, 52.361949], [13.524135, 52.361775]]]}}, {"type": "Feature", "properties": {"kind": "building", "h": 9.0, "name": "BVD Garage"}, "geometry": {"type": "Polygon", "coordinates": [[[13.523409, 52.362862], [13.522978, 52.363543], [13.522925, 52.363626], [13.523658, 52.363799], [13.524142, 52.363036], [13.523409, 52.362862]]]}}, {"type": "Feature", "properties": {"kind": "building", "h": 9.0, "name": "TI Technische Instandhaltung"}, "geometry": {"type": "Polygon", "coordinates": [[[13.527815, 52.363925], [13.527452, 52.364499], [13.527444, 52.364511], [13.527574, 52.364542], [13.527701, 52.364572], [13.527768, 52.364466], [13.528141, 52.364554], [13.528197, 52.364567], [13.52813, 52.364674], [13.528255, 52.364703], [13.528366, 52.36473], [13.528407, 52.364665], [13.528434, 52.36462], [13.528738, 52.364143], [13.528502, 52.364087], [13.528444, 52.364179], [13.528373, 52.364162], [13.528015, 52.364078], [13.528073, 52.363986], [13.527815, 52.363925]]]}}, {"type": "Feature", "properties": {"kind": "building", "h": 9.0, "name": "BTO Betriebstankstelle Ost"}, "geometry": {"type": "Polygon", "coordinates": [[[13.521475, 52.363744], [13.521425, 52.363822], [13.521379, 52.363894], [13.521351, 52.363938], [13.521612, 52.364001], [13.52164, 52.363956], [13.521686, 52.363884], [13.521736, 52.363806], [13.521475, 52.363744]]]}}, {"type": "Feature", "properties": {"kind": "building", "h": 9.0, "name": ""}, "geometry": {"type": "Polygon", "coordinates": [[[13.517436, 52.371007], [13.517676, 52.371152], [13.517827, 52.371059], [13.517587, 52.370914], [13.517436, 52.371007]]]}}, {"type": "Feature", "properties": {"kind": "building", "h": 9.0, "name": ""}, "geometry": {"type": "Polygon", "coordinates": [[[13.517767, 52.370668], [13.518562, 52.371165], [13.518764, 52.371045], [13.517969, 52.370548], [13.517767, 52.370668]]]}}, {"type": "Feature", "properties": {"kind": "building", "h": 9.0, "name": ""}, "geometry": {"type": "Polygon", "coordinates": [[[13.515805, 52.370303], [13.516514, 52.370737], [13.516761, 52.370888], [13.516772, 52.370881], [13.517075, 52.370696], [13.517097, 52.370683], [13.516142, 52.370098], [13.515805, 52.370303]]]}}, {"type": "Feature", "properties": {"kind": "building", "h": 9.0, "name": "Flughafen Feuerwache Ost"}, "geometry": {"type": "Polygon", "coordinates": [[[13.519429, 52.3641], [13.519862, 52.364202], [13.520334, 52.363467], [13.519895, 52.363362], [13.519429, 52.3641]]]}}, {"type": "Feature", "properties": {"kind": "building", "h": 3.5, "name": "ZKS 11 - Zugangskontrollstelle Süd"}, "geometry": {"type": "Polygon", "coordinates": [[[13.526374, 52.365245], [13.52628, 52.365223], [13.526273, 52.365234], [13.526114, 52.365195], [13.526121, 52.365185], [13.526114, 52.365184], [13.525979, 52.365392], [13.525988, 52.365394], [13.525995, 52.365384], [13.526153, 52.365422], [13.526148, 52.365433], [13.526243, 52.365455], [13.526374, 52.365245]]]}}, {"type": "Feature", "properties": {"kind": "building", "h": 9.0, "name": ""}, "geometry": {"type": "Polygon", "coordinates": [[[13.528222, 52.371099], [13.528226, 52.370932], [13.528047, 52.37093], [13.528039, 52.371094], [13.528222, 52.371099]]]}}, {"type": "Feature", "properties": {"kind": "building", "h": 9.0, "name": ""}, "geometry": {"type": "Polygon", "coordinates": [[[13.526336, 52.36477], [13.526272, 52.364871], [13.526629, 52.364955], [13.526693, 52.364854], [13.526336, 52.36477]]]}}, {"type": "Feature", "properties": {"kind": "building", "h": 9.0, "name": ""}, "geometry": {"type": "Polygon", "coordinates": [[[13.525979, 52.365392], [13.526114, 52.365184], [13.526124, 52.365169], [13.525956, 52.365128], [13.5258, 52.365091], [13.525661, 52.365306], [13.525643, 52.365334], [13.525801, 52.365372], [13.525967, 52.365412], [13.525979, 52.365392]]]}}, {"type": "Feature", "properties": {"kind": "building", "h": 9.0, "name": "BER-FOC - Flight Operation Center"}, "geometry": {"type": "Polygon", "coordinates": [[[13.529021, 52.365013], [13.529284, 52.365075], [13.529491, 52.365124], [13.529733, 52.365181], [13.529809, 52.36506], [13.529098, 52.364892], [13.529021, 52.365013]]]}}, {"type": "Feature", "properties": {"kind": "building", "h": 9.0, "name": "BER - Enteisung"}, "geometry": {"type": "Polygon", "coordinates": [[[13.522236, 52.363306], [13.522181, 52.363392], [13.522346, 52.363431], [13.522401, 52.363346], [13.522236, 52.363306]]]}}, {"type": "Feature", "properties": {"kind": "building", "h": 9.0, "name": "Fäkalannahme"}, "geometry": {"type": "Polygon", "coordinates": [[[13.498422, 52.36578], [13.498183, 52.365723], [13.498147, 52.365778], [13.498386, 52.365836], [13.498413, 52.365793], [13.498422, 52.36578]]]}}, {"type": "Feature", "properties": {"kind": "building", "h": 9.0, "name": "Y019 + Y020"}, "geometry": {"type": "Polygon", "coordinates": [[[13.521798, 52.370565], [13.523235, 52.370918], [13.523226, 52.370933], [13.523299, 52.370951], [13.523309, 52.370936], [13.524079, 52.371125], [13.524157, 52.371007], [13.523406, 52.370823], [13.523531, 52.37063], [13.522003, 52.370254], [13.52188, 52.37044], [13.521798, 52.370565]]]}}, {"type": "Feature", "properties": {"kind": "building", "h": 9.0, "name": "Lufthansa Bombardier Aviation Services"}, "geometry": {"type": "Polygon", "coordinates": [[[13.520849, 52.370531], [13.520673, 52.370395], [13.520682, 52.37039], [13.52066, 52.370374], [13.520652, 52.370378], [13.520647, 52.370375], [13.520475, 52.370457], [13.52041, 52.370407], [13.520404, 52.370402], [13.519449, 52.370866], [13.519521, 52.370921], [13.519357, 52.371002], [13.51962, 52.371205], [13.519698, 52.371265], [13.519715, 52.371257], [13.51973, 52.371268], [13.519792, 52.371238], [13.519776, 52.371227], [13.520987, 52.370638], [13.520849, 52.370531]]]}}, {"type": "Feature", "properties": {"kind": "building", "h": 9.0, "name": ""}, "geometry": {"type": "Polygon", "coordinates": [[[13.523877, 52.36133], [13.524007, 52.361362], [13.524114, 52.361201], [13.523983, 52.361169], [13.523877, 52.36133]]]}}, {"type": "Feature", "properties": {"kind": "building", "h": 9.0, "name": ""}, "geometry": {"type": "Polygon", "coordinates": [[[13.526073, 52.361719], [13.526473, 52.361815], [13.526563, 52.361677], [13.526163, 52.36158], [13.526073, 52.361719]]]}}, {"type": "Feature", "properties": {"kind": "building", "h": 9.0, "name": ""}, "geometry": {"type": "Polygon", "coordinates": [[[13.486285, 52.359622], [13.486296, 52.359715], [13.486389, 52.359711], [13.486378, 52.359618], [13.486285, 52.359622]]]}}, {"type": "Feature", "properties": {"kind": "building", "h": 9.0, "name": ""}, "geometry": {"type": "Polygon", "coordinates": [[[13.524064, 52.361322], [13.524172, 52.361349], [13.524247, 52.361238], [13.524139, 52.361211], [13.524064, 52.361322]]]}}, {"type": "Feature", "properties": {"kind": "building", "h": 7.0, "name": ""}, "geometry": {"type": "Polygon", "coordinates": [[[13.500771, 52.362421], [13.500918, 52.362458], [13.501062, 52.362245], [13.500915, 52.362208], [13.500771, 52.362421]]]}}, {"type": "Feature", "properties": {"kind": "building", "h": 9.0, "name": ""}, "geometry": {"type": "Polygon", "coordinates": [[[13.486368, 52.360319], [13.486461, 52.360315], [13.48645, 52.360225], [13.486357, 52.36023], [13.486368, 52.360319]]]}}, {"type": "Feature", "properties": {"kind": "building", "h": 9.0, "name": ""}, "geometry": {"type": "Polygon", "coordinates": [[[13.493742, 52.3603], [13.493796, 52.360211], [13.493707, 52.360191], [13.493653, 52.360281], [13.493742, 52.3603]]]}}, {"type": "Feature", "properties": {"kind": "building", "h": 9.0, "name": ""}, "geometry": {"type": "Polygon", "coordinates": [[[13.5006, 52.361423], [13.500716, 52.36145], [13.500808, 52.361305], [13.500692, 52.361278], [13.5006, 52.361423]]]}}, {"type": "Feature", "properties": {"kind": "building", "h": 9.0, "name": ""}, "geometry": {"type": "Polygon", "coordinates": [[[13.493432, 52.360864], [13.493487, 52.360777], [13.493406, 52.360758], [13.493351, 52.360844], [13.493432, 52.360864]]]}}, {"type": "Feature", "properties": {"kind": "building", "h": 9.0, "name": ""}, "geometry": {"type": "Polygon", "coordinates": [[[13.500071, 52.362436], [13.500104, 52.362444], [13.500169, 52.362459], [13.500232, 52.36236], [13.500134, 52.362337], [13.500071, 52.362436]]]}}, {"type": "Feature", "properties": {"kind": "building", "h": 9.0, "name": ""}, "geometry": {"type": "Polygon", "coordinates": [[[13.520563, 52.370206], [13.520506, 52.370163], [13.520427, 52.370202], [13.520155, 52.369995], [13.520053, 52.370045], [13.520382, 52.370295], [13.520563, 52.370206]]]}}, {"type": "Feature", "properties": {"kind": "building", "h": 9.0, "name": ""}, "geometry": {"type": "Polygon", "coordinates": [[[13.529323, 52.370424], [13.529321, 52.370383], [13.529297, 52.370344], [13.52925, 52.370309], [13.529187, 52.370286], [13.529115, 52.370278], [13.529042, 52.370285], [13.528978, 52.370306], [13.528929, 52.37034], [13.528902, 52.370381], [13.528899, 52.370426], [13.528919, 52.370466], [13.528958, 52.3705], [13.529013, 52.370525], [13.529078, 52.370537], [13.529146, 52.370537], [13.529211, 52.370524], [13.529265, 52.370499], [13.529304, 52.370464], [13.529323, 52.370424]]]}}, {"type": "Feature", "properties": {"kind": "building", "h": 9.0, "name": ""}, "geometry": {"type": "Polygon", "coordinates": [[[13.529329, 52.369818], [13.529346, 52.369778], [13.529342, 52.369737], [13.529313, 52.369695], [13.529263, 52.369662], [13.529198, 52.369641], [13.529125, 52.369635], [13.529053, 52.369645], [13.52899, 52.369669], [13.528944, 52.369704], [13.528921, 52.369747], [13.528923, 52.369792], [13.528947, 52.36983], [13.528989, 52.369863], [13.529046, 52.369885], [13.529111, 52.369896], [13.529178, 52.369894], [13.529241, 52.369879], [13.529293, 52.369853], [13.529329, 52.369818]]]}}, {"type": "Feature", "properties": {"kind": "building", "h": 9.0, "name": ""}, "geometry": {"type": "Polygon", "coordinates": [[[13.529324, 52.370044], [13.529292, 52.370008], [13.529238, 52.369977], [13.52917, 52.36996], [13.529097, 52.369957], [13.529027, 52.36997], [13.528968, 52.369997], [13.528927, 52.370034], [13.528909, 52.370078], [13.528916, 52.370122], [13.528948, 52.370163], [13.528996, 52.370192], [13.529056, 52.370211], [13.529122, 52.370217], [13.529189, 52.370211], [13.529249, 52.370192], [13.529296, 52.370162], [13.529326, 52.370126], [13.529335, 52.370085], [13.529324, 52.370044]]]}}, {"type": "Feature", "properties": {"kind": "building", "h": 9.0, "name": ""}, "geometry": {"type": "Polygon", "coordinates": [[[13.52622, 52.373455], [13.526467, 52.373434], [13.526456, 52.373382], [13.526208, 52.373403], [13.52622, 52.373455]]]}}, {"type": "Feature", "properties": {"kind": "building", "h": 9.0, "name": ""}, "geometry": {"type": "Polygon", "coordinates": [[[13.519097, 52.354765], [13.519195, 52.354788], [13.519235, 52.354724], [13.519137, 52.354701], [13.519097, 52.354765]]]}}, {"type": "Feature", "properties": {"kind": "terminal", "h": 7.0, "name": "Pier Süd"}, "geometry": {"type": "Polygon", "coordinates": [[[13.510661, 52.361074], [13.510716, 52.360987], [13.510647, 52.36097], [13.510592, 52.361058], [13.510539, 52.361142], [13.510009, 52.361016], [13.510059, 52.360937], [13.510117, 52.360845], [13.510049, 52.360828], [13.50999, 52.360921], [13.50994, 52.361], [13.509927, 52.360997], [13.50985, 52.361119], [13.509675, 52.361077], [13.509444, 52.361022], [13.509419, 52.361061], [13.50965, 52.361116], [13.509825, 52.361158], [13.509806, 52.361188], [13.509786, 52.36122], [13.510065, 52.361286], [13.509968, 52.361438], [13.51002, 52.361451], [13.510117, 52.361298], [13.514671, 52.362378], [13.514691, 52.362346], [13.514812, 52.362155], [13.5148, 52.362152], [13.514848, 52.362075], [13.514908, 52.361981], [13.51484, 52.361964], [13.514779, 52.362059], [13.514731, 52.362136], [13.514201, 52.36201], [13.514251, 52.36193], [13.514309, 52.361838], [13.51424, 52.361823], [13.514183, 52.361914], [13.514132, 52.361994], [13.513602, 52.361868], [13.51365, 52.361792], [13.51371, 52.361697], [13.513642, 52.361681], [13.513581, 52.361776], [13.513533, 52.361852], [13.513003, 52.361726], [13.513054, 52.361646], [13.513112, 52.361555], [13.513043, 52.361538], [13.512985, 52.361629], [13.512934, 52.36171], [13.512404, 52.361584], [13.512454, 52.361505], [13.512513, 52.361413], [13.512444, 52.361396], [13.512386, 52.361489], [13.512336, 52.361568], [13.511806, 52.361442], [13.511855, 52.361364], [13.511914, 52.361271], [13.511845, 52.361255], [13.511786, 52.361348], [13.511737, 52.361426], [13.511207, 52.3613], [13.511258, 52.361219], [13.511315, 52.361129], [13.511247, 52.361113], [13.511189, 52.361203], [13.511138, 52.361284], [13.510607, 52.361158], [13.510661, 52.361074]]]}}, {"type": "Feature", "properties": {"kind": "building", "h": 7.0, "name": ""}, "geometry": {"type": "Polygon", "coordinates": [[[13.510685, 52.363451], [13.510224, 52.363342], [13.510264, 52.363281], [13.509751, 52.363158], [13.509861, 52.362984], [13.509766, 52.362961], [13.509274, 52.362845], [13.508841, 52.362742], [13.508492, 52.362659], [13.508483, 52.362657], [13.508419, 52.362642], [13.509419, 52.361061], [13.509444, 52.361022], [13.509521, 52.3609], [13.509303, 52.360849], [13.509354, 52.360767], [13.509412, 52.360677], [13.509343, 52.360661], [13.509286, 52.360751], [13.509234, 52.360832], [13.509016, 52.360781], [13.508874, 52.361006], [13.508552, 52.36093], [13.508488, 52.360914], [13.508423, 52.360899], [13.508397, 52.360941], [13.508526, 52.360971], [13.508847, 52.361048], [13.508642, 52.361372], [13.508319, 52.361296], [13.508245, 52.361278], [13.50817, 52.36126], [13.50802, 52.361225], [13.507993, 52.361267], [13.508289, 52.361337], [13.508615, 52.361414], [13.50841, 52.361739], [13.508089, 52.361663], [13.508024, 52.361648], [13.507958, 52.361632], [13.507932, 52.361674], [13.508062, 52.361705], [13.508383, 52.361781], [13.508178, 52.362106], [13.507858, 52.36203], [13.507792, 52.362014], [13.507727, 52.361999], [13.5077, 52.362041], [13.507831, 52.362072], [13.508151, 52.362148], [13.507946, 52.362472], [13.507626, 52.362397], [13.50756, 52.362381], [13.507495, 52.362365], [13.507468, 52.362407], [13.5076, 52.362439], [13.507919, 52.362514], [13.507714, 52.362839], [13.507394, 52.362763], [13.507328, 52.362748], [13.507263, 52.362732], [13.507236, 52.362774], [13.507368, 52.362805], [13.507687, 52.362881], [13.507652, 52.362936], [13.507482, 52.363205], [13.507163, 52.36313], [13.507097, 52.363114], [13.507031, 52.363098], [13.507004, 52.363141], [13.507136, 52.363172], [13.507455, 52.363248], [13.50725, 52.363572], [13.506931, 52.363497], [13.506865, 52.363481], [13.506798, 52.363465], [13.506772, 52.363507], [13.506905, 52.363539], [13.507223, 52.363614], [13.506786, 52.364305], [13.506468, 52.36423], [13.506401, 52.364214], [13.506334, 52.364198], [13.506308, 52.364241], [13.506442, 52.364272], [13.506759, 52.364348], [13.506589, 52.364616], [13.506554, 52.364672], [13.506237, 52.364597], [13.50617, 52.364581], [13.506103, 52.364565], [13.506089, 52.364586], [13.506076, 52.364607], [13.50621, 52.364639], [13.506527, 52.364714], [13.506322, 52.365039], [13.506005, 52.364964], [13.505938, 52.364948], [13.505871, 52.364932], [13.505844, 52.364974], [13.505979, 52.365006], [13.506295, 52.36508], [13.506089, 52.365405], [13.505774, 52.36533], [13.505706, 52.365314], [13.505638, 52.365298], [13.505612, 52.36534], [13.505747, 52.365372], [13.506063, 52.365447], [13.505857, 52.365772], [13.505542, 52.365697], [13.505475, 52.365681], [13.505407, 52.365665], [13.50538, 52.365707], [13.505516, 52.365739], [13.505831, 52.365814], [13.505626, 52.366138], [13.505311, 52.366064], [13.505242, 52.366048], [13.505174, 52.366031], [13.505148, 52.366073], [13.505284, 52.366106], [13.505599, 52.36618], [13.505394, 52.366505], [13.505079, 52.36643], [13.505011, 52.366414], [13.504942, 52.366398], [13.504916, 52.36644], [13.505052, 52.366473], [13.505367, 52.366547], [13.505225, 52.366772], [13.505729, 52.366892], [13.505806, 52.366772], [13.505834, 52.366729], [13.506463, 52.365733], [13.506832, 52.36515], [13.506896, 52.365165], [13.506904, 52.365167], [13.507255, 52.365251], [13.50769, 52.365354], [13.508179, 52.36547], [13.508273, 52.365492], [13.508403, 52.365287], [13.508665, 52.365351], [13.508914, 52.36541], [13.508935, 52.365378], [13.509396, 52.365487], [13.509836, 52.364793], [13.510321, 52.364908], [13.510403, 52.364927], [13.510473, 52.364814], [13.510537, 52.364712], [13.510656, 52.364523], [13.510739, 52.364389], [13.510808, 52.364278], [13.51076, 52.364267], [13.510731, 52.36426], [13.510246, 52.364145], [13.510685, 52.363451]]]}}, {"type": "Feature", "properties": {"kind": "building", "h": 9.0, "name": ""}, "geometry": {"type": "Polygon", "coordinates": [[[13.49857, 52.365787], [13.498563, 52.3658], [13.498421, 52.366021], [13.498575, 52.366058], [13.498724, 52.365824], [13.49857, 52.365787]]]}}, {"type": "Feature", "properties": {"kind": "building", "h": 9.0, "name": ""}, "geometry": {"type": "Polygon", "coordinates": [[[13.49857, 52.365787], [13.498724, 52.365824], [13.498764, 52.365761], [13.498611, 52.365724], [13.49857, 52.365787]]]}}, {"type": "Feature", "properties": {"kind": "building", "h": 9.0, "name": ""}, "geometry": {"type": "Polygon", "coordinates": [[[13.524143, 52.370212], [13.524257, 52.370269], [13.524371, 52.370183], [13.524257, 52.370127], [13.524143, 52.370212]]]}}, {"type": "Feature", "properties": {"kind": "building", "h": 9.0, "name": ""}, "geometry": {"type": "Polygon", "coordinates": [[[13.521334, 52.363964], [13.521595, 52.364027], [13.521612, 52.364001], [13.521351, 52.363938], [13.521334, 52.363964]]]}}, {"type": "Feature", "properties": {"kind": "building", "h": 9.0, "name": ""}, "geometry": {"type": "Polygon", "coordinates": [[[13.524035, 52.371642], [13.524061, 52.37166], [13.524161, 52.371605], [13.524135, 52.371587], [13.524035, 52.371642]]]}}, {"type": "Feature", "properties": {"kind": "building", "h": 9.0, "name": ""}, "geometry": {"type": "Polygon", "coordinates": [[[13.524656, 52.370796], [13.524686, 52.370815], [13.524711, 52.370801], [13.524682, 52.370782], [13.524656, 52.370796]]]}}, {"type": "Feature", "properties": {"kind": "building", "h": 9.0, "name": ""}, "geometry": {"type": "Polygon", "coordinates": [[[13.529492, 52.370448], [13.529895, 52.370449], [13.529908, 52.370093], [13.5295, 52.370081], [13.529492, 52.370448]]]}}, {"type": "Feature", "properties": {"kind": "building", "h": 9.0, "name": ""}, "geometry": {"type": "Polygon", "coordinates": [[[13.529504, 52.370722], [13.52968, 52.370724], [13.529689, 52.370512], [13.529511, 52.370509], [13.529504, 52.370722]]]}}, {"type": "Feature", "properties": {"kind": "building", "h": 9.0, "name": ""}, "geometry": {"type": "Polygon", "coordinates": [[[13.519294, 52.370236], [13.519341, 52.370247], [13.519353, 52.370227], [13.519306, 52.370216], [13.519294, 52.370236]]]}}, {"type": "Feature", "properties": {"kind": "building", "h": 9.0, "name": ""}, "geometry": {"type": "Polygon", "coordinates": [[[13.524327, 52.371334], [13.524308, 52.371329], [13.524273, 52.37138], [13.524391, 52.37141], [13.524425, 52.371359], [13.524368, 52.371345], [13.524377, 52.371332], [13.524336, 52.371322], [13.524327, 52.371334]]]}}, {"type": "Feature", "properties": {"kind": "building", "h": 9.0, "name": "6202"}, "geometry": {"type": "Polygon", "coordinates": [[[13.498413, 52.365793], [13.498386, 52.365836], [13.498359, 52.365877], [13.498487, 52.365908], [13.498541, 52.365824], [13.498413, 52.365793]]]}}, {"type": "Feature", "properties": {"kind": "building", "h": 9.0, "name": ""}, "geometry": {"type": "Polygon", "coordinates": [[[13.491412, 52.366313], [13.491691, 52.366378], [13.49174, 52.366301], [13.491461, 52.366236], [13.491412, 52.366313]]]}}, {"type": "Feature", "properties": {"kind": "building", "h": 9.0, "name": "BER - Enteisung"}, "geometry": {"type": "Polygon", "coordinates": [[[13.522479, 52.363294], [13.522478, 52.363294], [13.522497, 52.363299], [13.522558, 52.363202], [13.52254, 52.363198], [13.522539, 52.3632], [13.522492, 52.363188], [13.522486, 52.363198], [13.522449, 52.363189], [13.522395, 52.363274], [13.522479, 52.363294]]]}}, {"type": "Feature", "properties": {"kind": "building", "h": 9.0, "name": "BER - Enteisung"}, "geometry": {"type": "Polygon", "coordinates": [[[13.522336, 52.36311], [13.522339, 52.363105], [13.522264, 52.363087], [13.522177, 52.363223], [13.522196, 52.363228], [13.522196, 52.363227], [13.522326, 52.363258], [13.522404, 52.363137], [13.522426, 52.363142], [13.522432, 52.363133], [13.522336, 52.36311]]]}}, {"type": "Feature", "properties": {"kind": "building", "h": 9.0, "name": "BER - Enteisung"}, "geometry": {"type": "Polygon", "coordinates": [[[13.52218, 52.363185], [13.522193, 52.363188], [13.522208, 52.363163], [13.522196, 52.36316], [13.52218, 52.363185]]]}}, {"type": "Feature", "properties": {"kind": "building", "h": 9.0, "name": "BER - Enteisung"}, "geometry": {"type": "Polygon", "coordinates": [[[13.522412, 52.363021], [13.522398, 52.363042], [13.522474, 52.36306], [13.522487, 52.363039], [13.522412, 52.363021]]]}}, {"type": "Feature", "properties": {"kind": "building", "h": 9.0, "name": "BER - Enteisung"}, "geometry": {"type": "Polygon", "coordinates": [[[13.522265, 52.363051], [13.522278, 52.363054], [13.522294, 52.36303], [13.522281, 52.363027], [13.522265, 52.363051]]]}}, {"type": "Feature", "properties": {"kind": "building", "h": 9.0, "name": ""}, "geometry": {"type": "Polygon", "coordinates": [[[13.503622, 52.3745], [13.503607, 52.374523], [13.503645, 52.374532], [13.50366, 52.374509], [13.503622, 52.3745]]]}}, {"type": "Feature", "properties": {"kind": "building", "h": 9.0, "name": ""}, "geometry": {"type": "Polygon", "coordinates": [[[13.521892, 52.378828], [13.521942, 52.378753], [13.521801, 52.378718], [13.521751, 52.378793], [13.521892, 52.378828]]]}}, {"type": "Feature", "properties": {"kind": "building", "h": 9.0, "name": ""}, "geometry": {"type": "Polygon", "coordinates": [[[13.507769, 52.375482], [13.507793, 52.375482], [13.507809, 52.375493], [13.507807, 52.375507], [13.507791, 52.375516], [13.50777, 52.375516], [13.507753, 52.375506], [13.507753, 52.375492], [13.507769, 52.375482]]]}}, {"type": "Feature", "properties": {"kind": "building", "h": 9.0, "name": ""}, "geometry": {"type": "Polygon", "coordinates": [[[13.524557, 52.371561], [13.524527, 52.371578], [13.524544, 52.37159], [13.524574, 52.371573], [13.524557, 52.371561]]]}}, {"type": "Feature", "properties": {"kind": "building", "h": 9.0, "name": ""}, "geometry": {"type": "Polygon", "coordinates": [[[13.524728, 52.36989], [13.524676, 52.369929], [13.524741, 52.369962], [13.524794, 52.369924], [13.524728, 52.36989]]]}}, {"type": "Feature", "properties": {"kind": "building", "h": 9.0, "name": ""}, "geometry": {"type": "Polygon", "coordinates": [[[13.524641, 52.371129], [13.524616, 52.371141], [13.524656, 52.371173], [13.524682, 52.37116], [13.524641, 52.371129]]]}}, {"type": "Feature", "properties": {"kind": "building", "h": 9.0, "name": ""}, "geometry": {"type": "Polygon", "coordinates": [[[13.523799, 52.371816], [13.523819, 52.371828], [13.523872, 52.371798], [13.523852, 52.371785], [13.523799, 52.371816]]]}}, {"type": "Feature", "properties": {"kind": "building", "h": 9.0, "name": ""}, "geometry": {"type": "Polygon", "coordinates": [[[13.524306, 52.371688], [13.524259, 52.371714], [13.524286, 52.371732], [13.524333, 52.371706], [13.524306, 52.371688]]]}}, {"type": "Feature", "properties": {"kind": "building", "h": 9.0, "name": ""}, "geometry": {"type": "Polygon", "coordinates": [[[13.522378, 52.370018], [13.522428, 52.37003], [13.522474, 52.369962], [13.522424, 52.369949], [13.522378, 52.370018]]]}}, {"type": "Feature", "properties": {"kind": "building", "h": 9.0, "name": ""}, "geometry": {"type": "Polygon", "coordinates": [[[13.526399, 52.365521], [13.526416, 52.365494], [13.526562, 52.365262], [13.526499, 52.365246], [13.52639, 52.36522], [13.526374, 52.365245], [13.526243, 52.365455], [13.526229, 52.36548], [13.526399, 52.365521]]]}}, {"type": "Feature", "properties": {"kind": "building", "h": 9.0, "name": ""}, "geometry": {"type": "Polygon", "coordinates": [[[13.518267, 52.355269], [13.518419, 52.355304], [13.518438, 52.355273], [13.518386, 52.355261], [13.518394, 52.355249], [13.518293, 52.355226], [13.518267, 52.355269]]]}}, {"type": "Feature", "properties": {"kind": "building", "h": 9.0, "name": ""}, "geometry": {"type": "Polygon", "coordinates": [[[13.530442, 52.364872], [13.530349, 52.36485], [13.530404, 52.364764], [13.530497, 52.364786], [13.530442, 52.364872]]]}}, {"type": "Feature", "properties": {"kind": "building", "h": 21.0, "name": ""}, "geometry": {"type": "Polygon", "coordinates": [[[13.507935, 52.366321], [13.508628, 52.366486], [13.508664, 52.366428], [13.508066, 52.366286], [13.50853, 52.365553], [13.508273, 52.365492], [13.508179, 52.36547], [13.50769, 52.365354], [13.507255, 52.365251], [13.506904, 52.365167], [13.506896, 52.365165], [13.506859, 52.365223], [13.508236, 52.36555], [13.508399, 52.365588], [13.507935, 52.366321]]]}}, {"type": "Feature", "properties": {"kind": "terminal", "h": 18.0, "name": "Regierungsterminal"}, "geometry": {"type": "Polygon", "coordinates": [[[13.507234, 52.380718], [13.507048, 52.380896], [13.508339, 52.381399], [13.508526, 52.38122], [13.507234, 52.380718]]]}}, {"type": "Feature", "properties": {"kind": "terminal", "h": 15.0, "name": "Terminal 2"}, "geometry": {"type": "Polygon", "coordinates": [[[13.507995, 52.366979], [13.508066, 52.366865], [13.508208, 52.366643], [13.509863, 52.367036], [13.511484, 52.36742], [13.511395, 52.36756], [13.511271, 52.367756], [13.50886, 52.367184], [13.508797, 52.367169], [13.508261, 52.367042], [13.508198, 52.367027], [13.507995, 52.366979]]]}}, {"type": "Feature", "properties": {"kind": "building", "h": 9.0, "name": ""}, "geometry": {"type": "Polygon", "coordinates": [[[13.528117, 52.369366], [13.528122, 52.369242], [13.528584, 52.369249], [13.528579, 52.369373], [13.528117, 52.369366]]]}}, {"type": "Feature", "properties": {"kind": "building", "h": 9.0, "name": ""}, "geometry": {"type": "Polygon", "coordinates": [[[13.529885, 52.370008], [13.529887, 52.369906], [13.529669, 52.369901], [13.529668, 52.369859], [13.529533, 52.369858], [13.529531, 52.370003], [13.529885, 52.370008]]]}}, {"type": "Feature", "properties": {"kind": "building", "h": 9.0, "name": ""}, "geometry": {"type": "Polygon", "coordinates": [[[13.511375, 52.367812], [13.511569, 52.367858], [13.511711, 52.367633], [13.511517, 52.367587], [13.511375, 52.367812]]]}}, {"type": "Feature", "properties": {"kind": "building", "h": 9.0, "name": ""}, "geometry": {"type": "Polygon", "coordinates": [[[13.499341, 52.362489], [13.499592, 52.362546], [13.499641, 52.362558], [13.499632, 52.362573], [13.499629, 52.362575], [13.499499, 52.362546], [13.499489, 52.362561], [13.49932, 52.362523], [13.499341, 52.362489]]]}}, {"type": "Feature", "properties": {"kind": "building", "h": 9.0, "name": ""}, "geometry": {"type": "Polygon", "coordinates": [[[13.516498, 52.369883], [13.516442, 52.369917], [13.515837, 52.369541], [13.516465, 52.369164], [13.51659, 52.369242], [13.51707, 52.36954], [13.517016, 52.369572], [13.516498, 52.369883]]]}}, {"type": "Feature", "properties": {"kind": "building", "h": 9.0, "name": ""}, "geometry": {"type": "Polygon", "coordinates": [[[13.516465, 52.369164], [13.516625, 52.369066], [13.516792, 52.369168], [13.516678, 52.369238], [13.516637, 52.369213], [13.51659, 52.369242], [13.516465, 52.369164]]]}}, {"type": "Feature", "properties": {"kind": "building", "h": 9.0, "name": ""}, "geometry": {"type": "Polygon", "coordinates": [[[13.516899, 52.370957], [13.517198, 52.37077], [13.517075, 52.370696], [13.516772, 52.370881], [13.516899, 52.370957]]]}}, {"type": "Feature", "properties": {"kind": "building", "h": 9.0, "name": "navtec"}, "geometry": {"type": "Polygon", "coordinates": [[[13.51962, 52.371205], [13.519599, 52.371216], [13.519526, 52.371198], [13.519201, 52.371668], [13.519391, 52.371717], [13.5195, 52.371557], [13.519698, 52.371265], [13.51962, 52.371205]]]}}, {"type": "Feature", "properties": {"kind": "terminal", "h": 18.0, "name": "Pier Nord"}, "geometry": {"type": "Polygon", "coordinates": [[[13.506221, 52.367009], [13.506284, 52.366908], [13.506297, 52.366889], [13.506221, 52.366872], [13.506029, 52.366826], [13.505861, 52.366785], [13.505806, 52.366772], [13.505834, 52.366729], [13.505891, 52.366742], [13.506058, 52.366782], [13.506241, 52.366826], [13.506325, 52.366846], [13.506363, 52.366783], [13.50641, 52.366795], [13.508093, 52.367194], [13.508125, 52.367142], [13.508198, 52.367027], [13.508261, 52.367042], [13.508188, 52.367157], [13.508156, 52.367209], [13.508691, 52.367336], [13.508726, 52.367282], [13.508797, 52.367169], [13.50886, 52.367184], [13.508789, 52.367297], [13.508755, 52.367351], [13.511164, 52.367922], [13.511021, 52.368147], [13.506221, 52.367009]]]}}, {"type": "Feature", "properties": {"kind": "terminal", "h": 32.0, "name": "BER Terminal 1"}, "geometry": {"type": "Polygon", "coordinates": [[[13.509016, 52.360781], [13.508874, 52.361006], [13.508552, 52.36093], [13.508488, 52.360914], [13.508423, 52.360899], [13.508397, 52.360941], [13.508526, 52.360971], [13.508847, 52.361048], [13.508642, 52.361372], [13.508319, 52.361296], [13.508245, 52.361278], [13.50817, 52.36126], [13.50802, 52.361225], [13.507993, 52.361267], [13.508289, 52.361337], [13.508615, 52.361414], [13.50841, 52.361739], [13.508089, 52.361663], [13.508024, 52.361648], [13.507958, 52.361632], [13.507932, 52.361674], [13.508062, 52.361705], [13.508383, 52.361781], [13.508178, 52.362106], [13.507858, 52.36203], [13.507792, 52.362014], [13.507727, 52.361999], [13.5077, 52.362041], [13.507831, 52.362072], [13.508151, 52.362148], [13.507946, 52.362472], [13.507626, 52.362397], [13.50756, 52.362381], [13.507495, 52.362365], [13.507468, 52.362407], [13.5076, 52.362439], [13.507919, 52.362514], [13.507714, 52.362839], [13.507394, 52.362763], [13.507328, 52.362748], [13.507263, 52.362732], [13.507236, 52.362774], [13.507368, 52.362805], [13.507687, 52.362881], [13.507652, 52.362936], [13.507482, 52.363205], [13.507163, 52.36313], [13.507097, 52.363114], [13.507031, 52.363098], [13.507004, 52.363141], [13.507136, 52.363172], [13.507455, 52.363248], [13.50725, 52.363572], [13.506931, 52.363497], [13.506865, 52.363481], [13.506798, 52.363465], [13.506772, 52.363507], [13.506905, 52.363539], [13.507223, 52.363614], [13.506786, 52.364305], [13.506468, 52.36423], [13.506401, 52.364214], [13.506334, 52.364198], [13.506308, 52.364241], [13.506442, 52.364272], [13.506759, 52.364348], [13.506589, 52.364616], [13.506554, 52.364672], [13.506237, 52.364597], [13.50617, 52.364581], [13.506103, 52.364565], [13.506089, 52.364586], [13.506076, 52.364607], [13.50621, 52.364639], [13.506527, 52.364714], [13.506322, 52.365039], [13.506005, 52.364964], [13.505938, 52.364948], [13.505871, 52.364932], [13.505844, 52.364974], [13.505979, 52.365006], [13.506295, 52.36508], [13.506089, 52.365405], [13.505774, 52.36533], [13.505706, 52.365314], [13.505638, 52.365298], [13.505612, 52.36534], [13.505747, 52.365372], [13.506063, 52.365447], [13.505857, 52.365772], [13.505542, 52.365697], [13.505475, 52.365681], [13.505407, 52.365665], [13.50538, 52.365707], [13.505516, 52.365739], [13.505831, 52.365814], [13.505626, 52.366138], [13.505311, 52.366064], [13.505242, 52.366048], [13.505174, 52.366031], [13.505148, 52.366073], [13.505284, 52.366106], [13.505599, 52.36618], [13.505394, 52.366505], [13.505079, 52.36643], [13.505011, 52.366414], [13.504942, 52.366398], [13.504916, 52.36644], [13.505052, 52.366473], [13.505367, 52.366547], [13.505225, 52.366772], [13.505729, 52.366892], [13.505806, 52.366772], [13.505834, 52.366729], [13.506463, 52.365733], [13.506832, 52.36515], [13.506896, 52.365165], [13.506904, 52.365167], [13.507255, 52.365251], [13.50769, 52.365354], [13.508179, 52.36547], [13.508273, 52.365492], [13.508403, 52.365287], [13.508914, 52.36541], [13.508935, 52.365378], [13.510224, 52.363342], [13.510264, 52.363281], [13.509751, 52.363158], [13.509861, 52.362984], [13.509766, 52.362961], [13.509274, 52.362845], [13.508841, 52.362742], [13.508492, 52.362659], [13.508483, 52.362657], [13.508419, 52.362642], [13.509419, 52.361061], [13.509444, 52.361022], [13.509521, 52.3609], [13.509303, 52.360849], [13.509354, 52.360767], [13.509412, 52.360677], [13.509343, 52.360661], [13.509286, 52.360751], [13.509234, 52.360832], [13.509016, 52.360781]]]}}, {"type": "Feature", "properties": {"kind": "building", "h": 9.0, "name": ""}, "geometry": {"type": "Polygon", "coordinates": [[[13.50096, 52.361067], [13.501065, 52.361092], [13.501124, 52.360998], [13.50102, 52.360973], [13.50096, 52.361067]]]}}, {"type": "Feature", "properties": {"kind": "building", "h": 9.0, "name": ""}, "geometry": {"type": "Polygon", "coordinates": [[[13.529227, 52.37232], [13.52923, 52.372174], [13.529352, 52.372176], [13.529348, 52.372321], [13.529227, 52.37232]]]}}, {"type": "Feature", "properties": {"kind": "building", "h": 9.0, "name": ""}, "geometry": {"type": "Polygon", "coordinates": [[[13.528916, 52.370605], [13.529259, 52.370607], [13.529254, 52.370749], [13.529131, 52.370751], [13.529125, 52.370998], [13.528989, 52.370998], [13.528999, 52.370751], [13.528913, 52.370749], [13.528916, 52.370605]]]}}, {"type": "Feature", "properties": {"kind": "runway", "ref": "06L/24R", "w": 45.0, "name": "RWY 06L / 24R"}, "geometry": {"type": "LineString", "coordinates": [[13.526112, 52.377433], [13.525926, 52.377389], [13.524916, 52.37715], [13.515854, 52.374999], [13.515096, 52.374819], [13.514589, 52.374699], [13.512674, 52.374245], [13.511333, 52.373926], [13.510207, 52.373659], [13.506698, 52.372826], [13.505374, 52.372512], [13.50351, 52.37207], [13.498843, 52.370962], [13.494202, 52.369861], [13.486599, 52.368057], [13.485248, 52.367736], [13.485005, 52.367678]]}}, {"type": "Feature", "properties": {"kind": "runway", "ref": "06R/24L", "w": 60.0, "name": "RWY 06R / 24L"}, "geometry": {"type": "LineString", "coordinates": [[13.523172, 52.35843], [13.521937, 52.358137], [13.502814, 52.353597], [13.49862, 52.352601], [13.49645, 52.352086], [13.491859, 52.350995], [13.490361, 52.35064], [13.469641, 52.345719], [13.468432, 52.345432]]}}, {"type": "Feature", "properties": {"kind": "gate", "ref": "C02", "gtype": "parking_position"}, "geometry": {"type": "Point", "coordinates": [13.508672, 52.360259]}}, {"type": "Feature", "properties": {"kind": "gate", "ref": "C01", "gtype": "parking_position"}, "geometry": {"type": "Point", "coordinates": [13.508071, 52.360117]}}, {"type": "Feature", "properties": {"kind": "gate", "ref": "A22", "gtype": "gate"}, "geometry": {"type": "Point", "coordinates": [13.509237, 52.360881]}}, {"type": "Feature", "properties": {"kind": "gate", "ref": "A30", "gtype": "gate"}, "geometry": {"type": "Point", "coordinates": [13.509954, 52.361035]}}, {"type": "Feature", "properties": {"kind": "gate", "ref": "A20/C19", "gtype": "gate"}, "geometry": {"type": "Point", "coordinates": [13.508988, 52.361048]}}, {"type": "Feature", "properties": {"kind": "gate", "ref": "A31", "gtype": "gate"}, "geometry": {"type": "Point", "coordinates": [13.510563, 52.361174]}}, {"type": "Feature", "properties": {"kind": "gate", "ref": "A32", "gtype": "gate"}, "geometry": {"type": "Point", "coordinates": [13.511147, 52.361316]}}, {"type": "Feature", "properties": {"kind": "gate", "ref": "A17/C17", "gtype": "gate"}, "geometry": {"type": "Point", "coordinates": [13.50877, 52.361426]}}, {"type": "Feature", "properties": {"kind": "gate", "ref": "A33", "gtype": "gate"}, "geometry": {"type": "Point", "coordinates": [13.511745, 52.361462]}}, {"type": "Feature", "properties": {"kind": "gate", "ref": "A34", "gtype": "gate"}, "geometry": {"type": "Point", "coordinates": [13.512352, 52.361601]}}, {"type": "Feature", "properties": {"kind": "gate", "ref": "A35", "gtype": "gate"}, "geometry": {"type": "Point", "coordinates": [13.512949, 52.361749]}}, {"type": "Feature", "properties": {"kind": "gate", "ref": "A10/C10", "gtype": "gate"}, "geometry": {"type": "Point", "coordinates": [13.508534, 52.361789]}}, {"type": "Feature", "properties": {"kind": "gate", "ref": "A36", "gtype": "gate"}, "geometry": {"type": "Point", "coordinates": [13.513539, 52.361887]}}, {"type": "Feature", "properties": {"kind": "gate", "ref": "A37", "gtype": "gate"}, "geometry": {"type": "Point", "coordinates": [13.514145, 52.362029]}}, {"type": "Feature", "properties": {"kind": "gate", "ref": "A38", "gtype": "gate"}, "geometry": {"type": "Point", "coordinates": [13.514735, 52.362157]}}, {"type": "Feature", "properties": {"kind": "gate", "ref": "A07/C07", "gtype": "gate"}, "geometry": {"type": "Point", "coordinates": [13.508316, 52.362157]}}, {"type": "Feature", "properties": {"kind": "gate", "ref": "A06/C06", "gtype": "gate"}, "geometry": {"type": "Point", "coordinates": [13.508069, 52.362521]}}, {"type": "Feature", "properties": {"kind": "gate", "ref": "A03/C03", "gtype": "gate"}, "geometry": {"type": "Point", "coordinates": [13.507835, 52.362886]}}, {"type": "Feature", "properties": {"kind": "gate", "ref": "A02/C02", "gtype": "gate"}, "geometry": {"type": "Point", "coordinates": [13.507611, 52.363251]}}, {"type": "Feature", "properties": {"kind": "gate", "ref": "A01/C01", "gtype": "gate"}, "geometry": {"type": "Point", "coordinates": [13.507371, 52.363607]}}, {"type": "Feature", "properties": {"kind": "gate", "ref": "B02/D02", "gtype": "gate"}, "geometry": {"type": "Point", "coordinates": [13.506395, 52.364182]}}, {"type": "Feature", "properties": {"kind": "gate", "ref": "B03/D03", "gtype": "gate"}, "geometry": {"type": "Point", "coordinates": [13.506671, 52.364723]}}, {"type": "Feature", "properties": {"kind": "gate", "ref": "B06/D06", "gtype": "gate"}, "geometry": {"type": "Point", "coordinates": [13.506444, 52.365089]}}, {"type": "Feature", "properties": {"kind": "gate", "ref": "B07/D07", "gtype": "gate"}, "geometry": {"type": "Point", "coordinates": [13.506228, 52.365456]}}, {"type": "Feature", "properties": {"kind": "gate", "ref": "B10/D10", "gtype": "gate"}, "geometry": {"type": "Point", "coordinates": [13.505988, 52.365825]}}, {"type": "Feature", "properties": {"kind": "gate", "ref": "B17/D17", "gtype": "gate"}, "geometry": {"type": "Point", "coordinates": [13.505757, 52.366183]}}, {"type": "Feature", "properties": {"kind": "gate", "ref": "B20", "gtype": "gate"}, "geometry": {"type": "Point", "coordinates": [13.50552, 52.366551]}}, {"type": "Feature", "properties": {"kind": "gate", "ref": "C07", "gtype": "parking_position"}, "geometry": {"type": "Point", "coordinates": [13.512314, 52.361191]}}, {"type": "Feature", "properties": {"kind": "gate", "ref": "C07A", "gtype": "parking_position"}, "geometry": {"type": "Point", "coordinates": [13.512279, 52.361292]}}, {"type": "Feature", "properties": {"kind": "gate", "ref": "C05", "gtype": "parking_position"}, "geometry": {"type": "Point", "coordinates": [13.51112, 52.360902]}}, {"type": "Feature", "properties": {"kind": "gate", "ref": "C06", "gtype": "parking_position"}, "geometry": {"type": "Point", "coordinates": [13.511708, 52.361047]}}, {"type": "Feature", "properties": {"kind": "gate", "ref": "C05A", "gtype": "parking_position"}, "geometry": {"type": "Point", "coordinates": [13.511072, 52.361008]}}, {"type": "Feature", "properties": {"kind": "gate", "ref": "C04", "gtype": "parking_position"}, "geometry": {"type": "Point", "coordinates": [13.510438, 52.360726]}}, {"type": "Feature", "properties": {"kind": "gate", "ref": "C03", "gtype": "parking_position"}, "geometry": {"type": "Point", "coordinates": [13.509763, 52.360648]}}, {"type": "Feature", "properties": {"kind": "gate", "ref": "A08", "gtype": "parking_position"}, "geometry": {"type": "Point", "coordinates": [13.508084, 52.367891]}}, {"type": "Feature", "properties": {"kind": "gate", "ref": "A09", "gtype": "parking_position"}, "geometry": {"type": "Point", "coordinates": [13.508708, 52.367998]}}, {"type": "Feature", "properties": {"kind": "gate", "ref": "A11", "gtype": "parking_position"}, "geometry": {"type": "Point", "coordinates": [13.509882, 52.368315]}}, {"type": "Feature", "properties": {"kind": "gate", "ref": "A10", "gtype": "parking_position"}, "geometry": {"type": "Point", "coordinates": [13.509288, 52.368172]}}, {"type": "Feature", "properties": {"kind": "gate", "ref": "B08", "gtype": "parking_position"}, "geometry": {"type": "Point", "coordinates": [13.506086, 52.363929]}}, {"type": "Feature", "properties": {"kind": "gate", "ref": "B07A", "gtype": "parking_position"}, "geometry": {"type": "Point", "coordinates": [13.506067, 52.364267]}}, {"type": "Feature", "properties": {"kind": "gate", "ref": "B07", "gtype": "parking_position"}, "geometry": {"type": "Point", "coordinates": [13.505779, 52.364349]}}, {"type": "Feature", "properties": {"kind": "gate", "ref": "B06", "gtype": "parking_position"}, "geometry": {"type": "Point", "coordinates": [13.505524, 52.364711]}}, {"type": "Feature", "properties": {"kind": "gate", "ref": "B05A", "gtype": "parking_position"}, "geometry": {"type": "Point", "coordinates": [13.505539, 52.364976]}}, {"type": "Feature", "properties": {"kind": "gate", "ref": "B05", "gtype": "parking_position"}, "geometry": {"type": "Point", "coordinates": [13.505305, 52.365076]}}, {"type": "Feature", "properties": {"kind": "gate", "ref": "B04", "gtype": "parking_position"}, "geometry": {"type": "Point", "coordinates": [13.505073, 52.365442]}}, {"type": "Feature", "properties": {"kind": "gate", "ref": "B03A", "gtype": "parking_position"}, "geometry": {"type": "Point", "coordinates": [13.50523, 52.365749]}}, {"type": "Feature", "properties": {"kind": "gate", "ref": "B03", "gtype": "parking_position"}, "geometry": {"type": "Point", "coordinates": [13.504854, 52.365817]}}, {"type": "Feature", "properties": {"kind": "gate", "ref": "B03", "gtype": "parking_position"}, "geometry": {"type": "Point", "coordinates": [13.504739, 52.366205]}}, {"type": "Feature", "properties": {"kind": "gate", "ref": "B02", "gtype": "parking_position"}, "geometry": {"type": "Point", "coordinates": [13.504685, 52.36643]}}, {"type": "Feature", "properties": {"kind": "gate", "ref": "B01", "gtype": "parking_position"}, "geometry": {"type": "Point", "coordinates": [13.504391, 52.366523]}}, {"type": "Feature", "properties": {"kind": "gate", "ref": "A01", "gtype": "parking_position"}, "geometry": {"type": "Point", "coordinates": [13.50382, 52.366843]}}, {"type": "Feature", "properties": {"kind": "gate", "ref": "A02", "gtype": "parking_position"}, "geometry": {"type": "Point", "coordinates": [13.504416, 52.366984]}}, {"type": "Feature", "properties": {"kind": "gate", "ref": "A04", "gtype": "parking_position"}, "geometry": {"type": "Point", "coordinates": [13.505748, 52.367297]}}, {"type": "Feature", "properties": {"kind": "gate", "ref": "A03", "gtype": "parking_position"}, "geometry": {"type": "Point", "coordinates": [13.505189, 52.36717]}}, {"type": "Feature", "properties": {"kind": "gate", "ref": "A05", "gtype": "parking_position"}, "geometry": {"type": "Point", "coordinates": [13.506316, 52.367428]}}, {"type": "Feature", "properties": {"kind": "gate", "ref": "A06", "gtype": "parking_position"}, "geometry": {"type": "Point", "coordinates": [13.50691, 52.367576]}}, {"type": "Feature", "properties": {"kind": "gate", "ref": "A07", "gtype": "parking_position"}, "geometry": {"type": "Point", "coordinates": [13.507506, 52.367715]}}, {"type": "Feature", "properties": {"kind": "gate", "ref": "B15", "gtype": "parking_position"}, "geometry": {"type": "Point", "coordinates": [13.50797, 52.360979]}}, {"type": "Feature", "properties": {"kind": "gate", "ref": "B15A", "gtype": "parking_position"}, "geometry": {"type": "Point", "coordinates": [13.508162, 52.360962]}}, {"type": "Feature", "properties": {"kind": "gate", "ref": "B15B", "gtype": "parking_position"}, "geometry": {"type": "Point", "coordinates": [13.508175, 52.360916]}}, {"type": "Feature", "properties": {"kind": "gate", "ref": "B16", "gtype": "parking_position"}, "geometry": {"type": "Point", "coordinates": [13.508132, 52.360625]}}, {"type": "Feature", "properties": {"kind": "gate", "ref": "B14", "gtype": "parking_position"}, "geometry": {"type": "Point", "coordinates": [13.507643, 52.361409]}}, {"type": "Feature", "properties": {"kind": "gate", "ref": "B13A", "gtype": "parking_position"}, "geometry": {"type": "Point", "coordinates": [13.507702, 52.361696]}}, {"type": "Feature", "properties": {"kind": "gate", "ref": "B13", "gtype": "parking_position"}, "geometry": {"type": "Point", "coordinates": [13.507559, 52.361815]}}, {"type": "Feature", "properties": {"kind": "gate", "ref": "B12", "gtype": "parking_position"}, "geometry": {"type": "Point", "coordinates": [13.507175, 52.36214]}}, {"type": "Feature", "properties": {"kind": "gate", "ref": "B11A", "gtype": "parking_position"}, "geometry": {"type": "Point", "coordinates": [13.507217, 52.362423]}}, {"type": "Feature", "properties": {"kind": "gate", "ref": "B11", "gtype": "parking_position"}, "geometry": {"type": "Point", "coordinates": [13.506961, 52.362521]}}, {"type": "Feature", "properties": {"kind": "gate", "ref": "B44", "gtype": "gate"}, "geometry": {"type": "Point", "coordinates": [13.510904, 52.368056]}}, {"type": "Feature", "properties": {"kind": "gate", "ref": "B33", "gtype": "gate"}, "geometry": {"type": "Point", "coordinates": [13.507262, 52.367147]}}, {"type": "Feature", "properties": {"kind": "gate", "ref": "B32", "gtype": "gate"}, "geometry": {"type": "Point", "coordinates": [13.507244, 52.367178]}}, {"type": "Feature", "properties": {"kind": "gate", "ref": "B31", "gtype": "gate"}, "geometry": {"type": "Point", "coordinates": [13.506565, 52.366981]}}, {"type": "Feature", "properties": {"kind": "gate", "ref": "B30", "gtype": "gate"}, "geometry": {"type": "Point", "coordinates": [13.506549, 52.367017]}}, {"type": "Feature", "properties": {"kind": "gate", "ref": "B37", "gtype": "gate"}, "geometry": {"type": "Point", "coordinates": [13.508697, 52.367487]}}, {"type": "Feature", "properties": {"kind": "gate", "ref": "B36", "gtype": "gate"}, "geometry": {"type": "Point", "coordinates": [13.508683, 52.367514]}}, {"type": "Feature", "properties": {"kind": "gate", "ref": "B35", "gtype": "gate"}, "geometry": {"type": "Point", "coordinates": [13.508, 52.367315]}}, {"type": "Feature", "properties": {"kind": "gate", "ref": "B34", "gtype": "gate"}, "geometry": {"type": "Point", "coordinates": [13.507979, 52.367376]}}, {"type": "Feature", "properties": {"kind": "gate", "ref": "B39", "gtype": "gate"}, "geometry": {"type": "Point", "coordinates": [13.509225, 52.367612]}}, {"type": "Feature", "properties": {"kind": "gate", "ref": "B38", "gtype": "gate"}, "geometry": {"type": "Point", "coordinates": [13.509212, 52.367643]}}, {"type": "Feature", "properties": {"kind": "gate", "ref": "B40", "gtype": "gate"}, "geometry": {"type": "Point", "coordinates": [13.509712, 52.367764]}}, {"type": "Feature", "properties": {"kind": "gate", "ref": "B41", "gtype": "gate"}, "geometry": {"type": "Point", "coordinates": [13.509723, 52.367739]}}, {"type": "Feature", "properties": {"kind": "gate", "ref": "B43", "gtype": "gate"}, "geometry": {"type": "Point", "coordinates": [13.510343, 52.36788]}}, {"type": "Feature", "properties": {"kind": "gate", "ref": "B42", "gtype": "gate"}, "geometry": {"type": "Point", "coordinates": [13.510328, 52.367909]}}, {"type": "Feature", "properties": {"kind": "gate", "ref": "B45", "gtype": "gate"}, "geometry": {"type": "Point", "coordinates": [13.510921, 52.368031]}}, {"type": "Feature", "properties": {"kind": "gate", "ref": "C08", "gtype": "parking_position"}, "geometry": {"type": "Point", "coordinates": [13.512922, 52.361324]}}, {"type": "Feature", "properties": {"kind": "gate", "ref": "C09A", "gtype": "parking_position"}, "geometry": {"type": "Point", "coordinates": [13.513476, 52.361578]}}, {"type": "Feature", "properties": {"kind": "gate", "ref": "C09", "gtype": "parking_position"}, "geometry": {"type": "Point", "coordinates": [13.513525, 52.361465]}}, {"type": "Feature", "properties": {"kind": "gate", "ref": "C10", "gtype": "parking_position"}, "geometry": {"type": "Point", "coordinates": [13.514106, 52.361606]}}, {"type": "Feature", "properties": {"kind": "gate", "ref": "C11A", "gtype": "parking_position"}, "geometry": {"type": "Point", "coordinates": [13.514673, 52.361871]}}, {"type": "Feature", "properties": {"kind": "gate", "ref": "C11", "gtype": "parking_position"}, "geometry": {"type": "Point", "coordinates": [13.514724, 52.36175]}}, {"type": "Feature", "properties": {"kind": "gate", "ref": "C12", "gtype": "parking_position"}, "geometry": {"type": "Point", "coordinates": [13.515409, 52.361881]}}, {"type": "Feature", "properties": {"kind": "gate", "ref": "C13", "gtype": "parking_position"}, "geometry": {"type": "Point", "coordinates": [13.516433, 52.362151]}}, {"type": "Feature", "properties": {"kind": "gate", "ref": "C14A", "gtype": "parking_position"}, "geometry": {"type": "Point", "coordinates": [13.517061, 52.362434]}}, {"type": "Feature", "properties": {"kind": "gate", "ref": "C14", "gtype": "parking_position"}, "geometry": {"type": "Point", "coordinates": [13.5171, 52.362327]}}, {"type": "Feature", "properties": {"kind": "gate", "ref": "C15", "gtype": "parking_position"}, "geometry": {"type": "Point", "coordinates": [13.517818, 52.362532]}}, {"type": "Feature", "properties": {"kind": "gate", "ref": "A12", "gtype": "parking_position"}, "geometry": {"type": "Point", "coordinates": [13.510497, 52.368425]}}, {"type": "Feature", "properties": {"kind": "gate", "ref": "A12", "gtype": "parking_position"}, "geometry": {"type": "Point", "coordinates": [13.5113, 52.368588]}}, {"type": "Feature", "properties": {"kind": "gate", "ref": "A14", "gtype": "parking_position"}, "geometry": {"type": "Point", "coordinates": [13.51192, 52.368729]}}, {"type": "Feature", "properties": {"kind": "gate", "ref": "A15", "gtype": "parking_position"}, "geometry": {"type": "Point", "coordinates": [13.512538, 52.368858]}}, {"type": "Feature", "properties": {"kind": "gate", "ref": "A16", "gtype": "parking_position"}, "geometry": {"type": "Point", "coordinates": [13.513151, 52.369018]}}, {"type": "Feature", "properties": {"kind": "gate", "ref": "A17", "gtype": "parking_position"}, "geometry": {"type": "Point", "coordinates": [13.513776, 52.369155]}}, {"type": "Feature", "properties": {"kind": "gate", "ref": "A18", "gtype": "parking_position"}, "geometry": {"type": "Point", "coordinates": [13.514398, 52.369277]}}, {"type": "Feature", "properties": {"kind": "gate", "ref": "A18", "gtype": "parking_position"}, "geometry": {"type": "Point", "coordinates": [13.515023, 52.36943]}}, {"type": "Feature", "properties": {"kind": "gate", "ref": "B10", "gtype": "parking_position"}, "geometry": {"type": "Point", "coordinates": [13.506725, 52.362877]}}, {"type": "Feature", "properties": {"kind": "gate", "ref": "B09A", "gtype": "parking_position"}, "geometry": {"type": "Point", "coordinates": [13.50677, 52.363159]}}, {"type": "Feature", "properties": {"kind": "gate", "ref": "B09", "gtype": "parking_position"}, "geometry": {"type": "Point", "coordinates": [13.506468, 52.363248]}}, {"type": "Feature", "properties": {"kind": "gate", "ref": "B07B", "gtype": "parking_position"}, "geometry": {"type": "Point", "coordinates": [13.506092, 52.364226]}}, {"type": "Feature", "properties": {"kind": "gate", "ref": "D01", "gtype": "parking_position"}, "geometry": {"type": "Point", "coordinates": [13.49899, 52.366799]}}, {"type": "Feature", "properties": {"kind": "gate", "ref": "D22", "gtype": "parking_position"}, "geometry": {"type": "Point", "coordinates": [13.504307, 52.358177]}}, {"type": "Feature", "properties": {"kind": "gate", "ref": "D21", "gtype": "parking_position"}, "geometry": {"type": "Point", "coordinates": [13.504262, 52.358728]}}, {"type": "Feature", "properties": {"kind": "gate", "ref": "D21A", "gtype": "parking_position"}, "geometry": {"type": "Point", "coordinates": [13.503883, 52.358847]}}, {"type": "Feature", "properties": {"kind": "gate", "ref": "D20", "gtype": "parking_position"}, "geometry": {"type": "Point", "coordinates": [13.504041, 52.359094]}}, {"type": "Feature", "properties": {"kind": "gate", "ref": "D19", "gtype": "parking_position"}, "geometry": {"type": "Point", "coordinates": [13.503727, 52.359579]}}, {"type": "Feature", "properties": {"kind": "gate", "ref": "D19A", "gtype": "parking_position"}, "geometry": {"type": "Point", "coordinates": [13.503395, 52.359667]}}, {"type": "Feature", "properties": {"kind": "gate", "ref": "D18", "gtype": "parking_position"}, "geometry": {"type": "Point", "coordinates": [13.503499, 52.359925]}}, {"type": "Feature", "properties": {"kind": "gate", "ref": "D17", "gtype": "parking_position"}, "geometry": {"type": "Point", "coordinates": [13.503266, 52.360294]}}, {"type": "Feature", "properties": {"kind": "gate", "ref": "D17A", "gtype": "parking_position"}, "geometry": {"type": "Point", "coordinates": [13.503029, 52.36039]}}, {"type": "Feature", "properties": {"kind": "gate", "ref": "D16", "gtype": "parking_position"}, "geometry": {"type": "Point", "coordinates": [13.503097, 52.360677]}}, {"type": "Feature", "properties": {"kind": "gate", "ref": "D15", "gtype": "parking_position"}, "geometry": {"type": "Point", "coordinates": [13.502821, 52.361026]}}, {"type": "Feature", "properties": {"kind": "gate", "ref": "D15A", "gtype": "parking_position"}, "geometry": {"type": "Point", "coordinates": [13.502603, 52.361133]}}, {"type": "Feature", "properties": {"kind": "gate", "ref": "D14", "gtype": "parking_position"}, "geometry": {"type": "Point", "coordinates": [13.50258, 52.361394]}}, {"type": "Feature", "properties": {"kind": "gate", "ref": "D13", "gtype": "parking_position"}, "geometry": {"type": "Point", "coordinates": [13.502357, 52.361757]}}, {"type": "Feature", "properties": {"kind": "gate", "ref": "D13B", "gtype": "parking_position"}, "geometry": {"type": "Point", "coordinates": [13.502001, 52.361878]}}, {"type": "Feature", "properties": {"kind": "gate", "ref": "D13A", "gtype": "parking_position"}, "geometry": {"type": "Point", "coordinates": [13.502127, 52.361857]}}, {"type": "Feature", "properties": {"kind": "gate", "ref": "D12", "gtype": "parking_position"}, "geometry": {"type": "Point", "coordinates": [13.502046, 52.362186]}}, {"type": "Feature", "properties": {"kind": "gate", "ref": "D11", "gtype": "parking_position"}, "geometry": {"type": "Point", "coordinates": [13.501652, 52.362858]}}, {"type": "Feature", "properties": {"kind": "gate", "ref": "D11A", "gtype": "parking_position"}, "geometry": {"type": "Point", "coordinates": [13.501426, 52.362959]}}, {"type": "Feature", "properties": {"kind": "gate", "ref": "D10", "gtype": "parking_position"}, "geometry": {"type": "Point", "coordinates": [13.50143, 52.363227]}}, {"type": "Feature", "properties": {"kind": "gate", "ref": "D09", "gtype": "parking_position"}, "geometry": {"type": "Point", "coordinates": [13.501189, 52.363595]}}, {"type": "Feature", "properties": {"kind": "gate", "ref": "D09A", "gtype": "parking_position"}, "geometry": {"type": "Point", "coordinates": [13.500967, 52.363691]}}, {"type": "Feature", "properties": {"kind": "gate", "ref": "D08", "gtype": "parking_position"}, "geometry": {"type": "Point", "coordinates": [13.501005, 52.363973]}}, {"type": "Feature", "properties": {"kind": "gate", "ref": "D07", "gtype": "parking_position"}, "geometry": {"type": "Point", "coordinates": [13.500757, 52.364332]}}, {"type": "Feature", "properties": {"kind": "gate", "ref": "D07A", "gtype": "parking_position"}, "geometry": {"type": "Point", "coordinates": [13.500502, 52.364431]}}, {"type": "Feature", "properties": {"kind": "gate", "ref": "D06", "gtype": "parking_position"}, "geometry": {"type": "Point", "coordinates": [13.500528, 52.364699]}}, {"type": "Feature", "properties": {"kind": "gate", "ref": "D05", "gtype": "parking_position"}, "geometry": {"type": "Point", "coordinates": [13.5003, 52.365071]}}, {"type": "Feature", "properties": {"kind": "gate", "ref": "D05A", "gtype": "parking_position"}, "geometry": {"type": "Point", "coordinates": [13.500027, 52.365158]}}, {"type": "Feature", "properties": {"kind": "gate", "ref": "D05B", "gtype": "parking_position"}, "geometry": {"type": "Point", "coordinates": [13.499918, 52.36518]}}, {"type": "Feature", "properties": {"kind": "gate", "ref": "D04", "gtype": "parking_position"}, "geometry": {"type": "Point", "coordinates": [13.500057, 52.36544]}}, {"type": "Feature", "properties": {"kind": "gate", "ref": "D03", "gtype": "parking_position"}, "geometry": {"type": "Point", "coordinates": [13.499734, 52.365978]}}, {"type": "Feature", "properties": {"kind": "gate", "ref": "D03B", "gtype": "parking_position"}, "geometry": {"type": "Point", "coordinates": [13.49939, 52.366103]}}, {"type": "Feature", "properties": {"kind": "gate", "ref": "D02", "gtype": "parking_position"}, "geometry": {"type": "Point", "coordinates": [13.499492, 52.366343]}}, {"type": "Feature", "properties": {"kind": "gate", "ref": "B19", "gtype": "gate"}, "geometry": {"type": "Point", "coordinates": [13.50571, 52.366243]}}, {"type": "Feature", "properties": {"kind": "gate", "ref": "B21", "gtype": "gate"}, "geometry": {"type": "Point", "coordinates": [13.505387, 52.366676]}}, {"type": "Feature", "properties": {"kind": "gate", "ref": "B01", "gtype": "gate"}, "geometry": {"type": "Point", "coordinates": [13.506927, 52.364344]}}, {"type": "Feature", "properties": {"kind": "gate", "ref": "C", "gtype": "parking_position"}, "geometry": {"type": "Point", "coordinates": [13.506983, 52.379219]}}, {"type": "Feature", "properties": {"kind": "gate", "ref": "B", "gtype": "parking_position"}, "geometry": {"type": "Point", "coordinates": [13.507906, 52.379371]}}, {"type": "Feature", "properties": {"kind": "gate", "ref": "PADEAST", "gtype": "parking_position"}, "geometry": {"type": "Point", "coordinates": [13.509606, 52.380226]}}, {"type": "Feature", "properties": {"kind": "gate", "ref": "E19", "gtype": "parking_position"}, "geometry": {"type": "Point", "coordinates": [13.500064, 52.35746]}}, {"type": "Feature", "properties": {"kind": "gate", "ref": "E18", "gtype": "parking_position"}, "geometry": {"type": "Point", "coordinates": [13.499721, 52.357991]}}, {"type": "Feature", "properties": {"kind": "gate", "ref": "E17", "gtype": "parking_position"}, "geometry": {"type": "Point", "coordinates": [13.499483, 52.358366]}}, {"type": "Feature", "properties": {"kind": "gate", "ref": "E16", "gtype": "parking_position"}, "geometry": {"type": "Point", "coordinates": [13.499139, 52.35891]}}, {"type": "Feature", "properties": {"kind": "gate", "ref": "E15", "gtype": "parking_position"}, "geometry": {"type": "Point", "coordinates": [13.4989, 52.359286]}}, {"type": "Feature", "properties": {"kind": "gate", "ref": "E14", "gtype": "parking_position"}, "geometry": {"type": "Point", "coordinates": [13.498608, 52.359747]}}, {"type": "Feature", "properties": {"kind": "gate", "ref": "E13", "gtype": "parking_position"}, "geometry": {"type": "Point", "coordinates": [13.498371, 52.360122]}}, {"type": "Feature", "properties": {"kind": "gate", "ref": "E12", "gtype": "parking_position"}, "geometry": {"type": "Point", "coordinates": [13.498079, 52.360583]}}, {"type": "Feature", "properties": {"kind": "gate", "ref": "E11", "gtype": "parking_position"}, "geometry": {"type": "Point", "coordinates": [13.497842, 52.360958]}}, {"type": "Feature", "properties": {"kind": "gate", "ref": "E10", "gtype": "parking_position"}, "geometry": {"type": "Point", "coordinates": [13.497551, 52.361419]}}, {"type": "Feature", "properties": {"kind": "gate", "ref": "E09", "gtype": "parking_position"}, "geometry": {"type": "Point", "coordinates": [13.497202, 52.361971]}}, {"type": "Feature", "properties": {"kind": "gate", "ref": "E08", "gtype": "parking_position"}, "geometry": {"type": "Point", "coordinates": [13.496964, 52.362347]}}, {"type": "Feature", "properties": {"kind": "gate", "ref": "E07", "gtype": "parking_position"}, "geometry": {"type": "Point", "coordinates": [13.496673, 52.362807]}}, {"type": "Feature", "properties": {"kind": "gate", "ref": "E06", "gtype": "parking_position"}, "geometry": {"type": "Point", "coordinates": [13.496435, 52.363182]}}, {"type": "Feature", "properties": {"kind": "gate", "ref": "E05", "gtype": "parking_position"}, "geometry": {"type": "Point", "coordinates": [13.496143, 52.363643]}}, {"type": "Feature", "properties": {"kind": "gate", "ref": "E04", "gtype": "parking_position"}, "geometry": {"type": "Point", "coordinates": [13.495905, 52.364019]}}, {"type": "Feature", "properties": {"kind": "gate", "ref": "E03", "gtype": "parking_position"}, "geometry": {"type": "Point", "coordinates": [13.495561, 52.364562]}}, {"type": "Feature", "properties": {"kind": "gate", "ref": "E02", "gtype": "parking_position"}, "geometry": {"type": "Point", "coordinates": [13.495323, 52.364938]}}, {"type": "Feature", "properties": {"kind": "gate", "ref": "E01", "gtype": "parking_position"}, "geometry": {"type": "Point", "coordinates": [13.494979, 52.365483]}}, {"type": "Feature", "properties": {"kind": "gate", "ref": "E21", "gtype": "parking_position"}, "geometry": {"type": "Point", "coordinates": [13.496977, 52.365264]}}, {"type": "Feature", "properties": {"kind": "gate", "ref": "E22", "gtype": "parking_position"}, "geometry": {"type": "Point", "coordinates": [13.49722, 52.364883]}}, {"type": "Feature", "properties": {"kind": "gate", "ref": "E24", "gtype": "parking_position"}, "geometry": {"type": "Point", "coordinates": [13.497695, 52.364134]}}, {"type": "Feature", "properties": {"kind": "gate", "ref": "E25", "gtype": "parking_position"}, "geometry": {"type": "Point", "coordinates": [13.497934, 52.363756]}}, {"type": "Feature", "properties": {"kind": "gate", "ref": "E23", "gtype": "parking_position"}, "geometry": {"type": "Point", "coordinates": [13.497464, 52.364507]}}, {"type": "Feature", "properties": {"kind": "gate", "ref": "E27", "gtype": "parking_position"}, "geometry": {"type": "Point", "coordinates": [13.498428, 52.363006]}}, {"type": "Feature", "properties": {"kind": "gate", "ref": "E26", "gtype": "parking_position"}, "geometry": {"type": "Point", "coordinates": [13.498181, 52.363377]}}, {"type": "Feature", "properties": {"kind": "gate", "ref": "E28", "gtype": "parking_position"}, "geometry": {"type": "Point", "coordinates": [13.499565, 52.361117]}}, {"type": "Feature", "properties": {"kind": "gate", "ref": "E29", "gtype": "parking_position"}, "geometry": {"type": "Point", "coordinates": [13.499792, 52.36074]}}, {"type": "Feature", "properties": {"kind": "gate", "ref": "E30", "gtype": "parking_position"}, "geometry": {"type": "Point", "coordinates": [13.50004, 52.360367]}}, {"type": "Feature", "properties": {"kind": "gate", "ref": "E32", "gtype": "parking_position"}, "geometry": {"type": "Point", "coordinates": [13.500513, 52.35961]}}, {"type": "Feature", "properties": {"kind": "gate", "ref": "E31", "gtype": "parking_position"}, "geometry": {"type": "Point", "coordinates": [13.50028, 52.359991]}}, {"type": "Feature", "properties": {"kind": "gate", "ref": "E35", "gtype": "parking_position"}, "geometry": {"type": "Point", "coordinates": [13.501243, 52.35848]}}, {"type": "Feature", "properties": {"kind": "gate", "ref": "E34", "gtype": "parking_position"}, "geometry": {"type": "Point", "coordinates": [13.500993, 52.358857]}}, {"type": "Feature", "properties": {"kind": "gate", "ref": "E33", "gtype": "parking_position"}, "geometry": {"type": "Point", "coordinates": [13.500753, 52.359234]}}, {"type": "Feature", "properties": {"kind": "gate", "ref": "P1", "gtype": "parking_position"}, "geometry": {"type": "Point", "coordinates": [13.509098, 52.380923]}}, {"type": "Feature", "properties": {"kind": "gate", "ref": "P2", "gtype": "parking_position"}, "geometry": {"type": "Point", "coordinates": [13.50664, 52.379964]}}, {"type": "Feature", "properties": {"kind": "gate", "ref": "PAD 3", "gtype": "parking_position"}, "geometry": {"type": "Point", "coordinates": [13.523122, 52.360819]}}, {"type": "Feature", "properties": {"kind": "gate", "ref": "PAD2", "gtype": "parking_position"}, "geometry": {"type": "Point", "coordinates": [13.522019, 52.361177]}}, {"type": "Feature", "properties": {"kind": "gate", "ref": "PAD1A", "gtype": "parking_position"}, "geometry": {"type": "Point", "coordinates": [13.521831, 52.360673]}}, {"type": "Feature", "properties": {"kind": "gate", "ref": "PAD1", "gtype": "parking_position"}, "geometry": {"type": "Point", "coordinates": [13.521121, 52.361126]}}, {"type": "Feature", "properties": {"kind": "gate", "ref": "DEICING", "gtype": "parking_position"}, "geometry": {"type": "Point", "coordinates": [13.522147, 52.360681]}}, {"type": "Feature", "properties": {"kind": "gate", "ref": "DEICING", "gtype": "parking_position"}, "geometry": {"type": "Point", "coordinates": [13.522405, 52.360723]}}, {"type": "Feature", "properties": {"kind": "gate", "ref": "B", "gtype": "parking_position"}, "geometry": {"type": "Point", "coordinates": [13.507954, 52.378888]}}, {"type": "Feature", "properties": {"kind": "gate", "ref": "B", "gtype": "parking_position"}, "geometry": {"type": "Point", "coordinates": [13.507616, 52.378688]}}, {"type": "Feature", "properties": {"kind": "gate", "ref": "PAD3", "gtype": "parking_position"}, "geometry": {"type": "Point", "coordinates": [13.528774, 52.375253]}}, {"type": "Feature", "properties": {"kind": "gate", "ref": "PAD2", "gtype": "parking_position"}, "geometry": {"type": "Point", "coordinates": [13.528053, 52.375294]}}, {"type": "Feature", "properties": {"kind": "gate", "ref": "PAD1A", "gtype": "parking_position"}, "geometry": {"type": "Point", "coordinates": [13.528738, 52.37545]}}, {"type": "Feature", "properties": {"kind": "gate", "ref": "", "gtype": "parking_position"}, "geometry": {"type": "Point", "coordinates": [13.528503, 52.375551]}}, {"type": "Feature", "properties": {"kind": "gate", "ref": "", "gtype": "parking_position"}, "geometry": {"type": "Point", "coordinates": [13.527784, 52.375372]}}, {"type": "Feature", "properties": {"kind": "gate", "ref": "PAD1", "gtype": "parking_position"}, "geometry": {"type": "Point", "coordinates": [13.527394, 52.375263]}}, {"type": "Feature", "properties": {"kind": "gate", "ref": "", "gtype": "parking_position"}, "geometry": {"type": "Point", "coordinates": [13.527136, 52.37523]}}, {"type": "Feature", "properties": {"kind": "gate", "ref": "", "gtype": "parking_position"}, "geometry": {"type": "Point", "coordinates": [13.527647, 52.375413]}}, {"type": "Feature", "properties": {"kind": "gate", "ref": "PAD1", "gtype": "parking_position"}, "geometry": {"type": "Point", "coordinates": [13.527627, 52.374691]}}]}