{"type": "FeatureCollection", "meta": {"iata": "MUC", "name": "Munich Airport", "city": "Munich", "center": [48.3538, 11.7861], "elev_m": 448, "source": "OpenStreetMap (© OpenStreetMap contributors, ODbL)"}, "features": [{"type": "Feature", "properties": {"kind": "terminal", "h": 18.0, "name": "Flughafen München, Munich Airport Centre"}, "geometry": {"type": "Polygon", "coordinates": [[[11.786583, 48.353988], [11.786493, 48.354054], [11.786478, 48.354143], [11.785933, 48.354104], [11.785569, 48.354078], [11.785585, 48.35398], [11.785512, 48.353905], [11.78554, 48.353749], [11.785367, 48.353735], [11.785377, 48.353681], [11.78555, 48.353695], [11.785569, 48.353587], [11.785655, 48.353552], [11.785674, 48.353436], [11.786583, 48.353502], [11.786565, 48.353611], [11.786639, 48.35367], [11.786628, 48.353736], [11.786769, 48.353747], [11.786761, 48.353796], [11.786922, 48.353808], [11.786918, 48.353829], [11.786915, 48.353848], [11.786754, 48.353835], [11.786744, 48.35389], [11.786603, 48.353879], [11.786583, 48.353988]]]}}, {"type": "Feature", "properties": {"kind": "terminal", "h": 18.0, "name": "Terminal F"}, "geometry": {"type": "Polygon", "coordinates": [[[11.790359, 48.357059], [11.790628, 48.357079], [11.790657, 48.356986], [11.790668, 48.356972], [11.790681, 48.356956], [11.790713, 48.356929], [11.790746, 48.356909], [11.790796, 48.356889], [11.790854, 48.356876], [11.790929, 48.356874], [11.791118, 48.356888], [11.791113, 48.356921], [11.791107, 48.356954], [11.790911, 48.356939], [11.790866, 48.356942], [11.790819, 48.356957], [11.790778, 48.356977], [11.790749, 48.357005], [11.790736, 48.357033], [11.790725, 48.357086], [11.790917, 48.3571], [11.790907, 48.357156], [11.790982, 48.357163], [11.791049, 48.357211], [11.79115, 48.357219], [11.790929, 48.358455], [11.790826, 48.35845], [11.790775, 48.358485], [11.790626, 48.358478], [11.790615, 48.358524], [11.79047, 48.358514], [11.790461, 48.358557], [11.790474, 48.358603], [11.790506, 48.358642], [11.790562, 48.35867], [11.790648, 48.358685], [11.790811, 48.358696], [11.790804, 48.358734], [11.790798, 48.358772], [11.790632, 48.35876], [11.790539, 48.358747], [11.790464, 48.358724], [11.790403, 48.358689], [11.790368, 48.358652], [11.790341, 48.358604], [11.790341, 48.358553], [11.790349, 48.358499], [11.790214, 48.35849], [11.790104, 48.358483], [11.790154, 48.358179], [11.790355, 48.357079], [11.790359, 48.357059]]]}}, {"type": "Feature", "properties": {"kind": "building", "h": 9.0, "name": "Feinwerkstattgebäude"}, "geometry": {"type": "Polygon", "coordinates": [[[11.761966, 48.357593], [11.76359, 48.357718], [11.763628, 48.357501], [11.762004, 48.357376], [11.761966, 48.357593]]]}}, {"type": "Feature", "properties": {"kind": "terminal", "h": 7.0, "name": "General Aviation Terminal"}, "geometry": {"type": "Polygon", "coordinates": [[[11.801406, 48.357971], [11.801633, 48.357988], [11.801642, 48.357942], [11.801652, 48.357883], [11.801661, 48.357831], [11.801433, 48.357814], [11.801307, 48.357804], [11.801369, 48.357444], [11.801495, 48.357454], [11.80215, 48.357504], [11.802129, 48.357628], [11.80182, 48.357605], [11.801799, 48.357726], [11.802106, 48.35775], [11.802085, 48.357869], [11.801956, 48.357859], [11.801948, 48.357904], [11.801937, 48.357964], [11.801929, 48.35801], [11.802053, 48.358019], [11.802032, 48.358136], [11.801386, 48.358087], [11.801406, 48.357971]]]}}, {"type": "Feature", "properties": {"kind": "building", "h": 9.0, "name": ""}, "geometry": {"type": "Polygon", "coordinates": [[[11.765203, 48.359864], [11.765413, 48.359877], [11.765441, 48.359673], [11.765231, 48.359661], [11.765203, 48.359864]]]}}, {"type": "Feature", "properties": {"kind": "building", "h": 9.0, "name": ""}, "geometry": {"type": "Polygon", "coordinates": [[[11.806632, 48.34922], [11.806244, 48.34919], [11.806251, 48.349148], [11.806639, 48.349177], [11.806632, 48.34922]]]}}, {"type": "Feature", "properties": {"kind": "terminal", "h": 18.0, "name": "Terminal 2"}, "geometry": {"type": "Polygon", "coordinates": [[[11.791826, 48.358641], [11.791844, 48.358534], [11.79162, 48.358516], [11.791565, 48.358512], [11.791618, 48.358204], [11.791674, 48.358208], [11.7919, 48.358225], [11.791915, 48.358143], [11.791689, 48.358125], [11.791633, 48.358121], [11.791659, 48.357974], [11.791715, 48.357979], [11.79193, 48.357995], [11.791944, 48.357912], [11.79173, 48.357896], [11.791673, 48.357891], [11.79173, 48.357558], [11.791788, 48.357563], [11.792008, 48.357579], [11.792024, 48.357489], [11.791804, 48.357473], [11.791748, 48.357468], [11.791798, 48.357177], [11.791855, 48.357182], [11.792064, 48.357198], [11.792078, 48.357116], [11.79187, 48.357101], [11.79181, 48.357096], [11.791833, 48.356962], [11.791894, 48.356967], [11.792096, 48.356982], [11.79211, 48.356897], [11.79191, 48.356882], [11.791846, 48.356877], [11.791894, 48.3566], [11.791962, 48.356605], [11.792156, 48.356619], [11.792171, 48.356533], [11.791978, 48.356519], [11.791909, 48.356513], [11.791909, 48.356508], [11.791964, 48.356194], [11.792034, 48.356199], [11.792228, 48.356214], [11.792244, 48.356122], [11.79205, 48.356107], [11.791979, 48.356102], [11.792018, 48.355887], [11.79203, 48.355821], [11.792049, 48.355717], [11.792119, 48.355722], [11.792312, 48.355736], [11.792326, 48.355651], [11.792134, 48.355636], [11.792054, 48.35563], [11.792117, 48.355304], [11.792191, 48.35531], [11.79239, 48.355324], [11.792405, 48.355241], [11.792206, 48.355226], [11.792129, 48.35522], [11.792162, 48.355028], [11.79224, 48.355035], [11.792434, 48.355049], [11.792448, 48.354969], [11.792254, 48.354954], [11.792176, 48.354948], [11.792225, 48.354666], [11.792303, 48.354672], [11.792502, 48.354687], [11.792519, 48.354587], [11.792321, 48.354572], [11.792237, 48.354566], [11.792286, 48.354281], [11.792371, 48.354288], [11.792548, 48.354301], [11.792566, 48.354195], [11.79239, 48.354181], [11.79231, 48.354175], [11.792355, 48.353911], [11.792436, 48.353918], [11.792624, 48.353932], [11.792639, 48.353849], [11.792451, 48.353835], [11.792331, 48.353825], [11.792338, 48.353782], [11.792459, 48.353791], [11.7928, 48.353817], [11.792853, 48.353514], [11.792512, 48.353488], [11.792377, 48.353477], [11.792419, 48.353236], [11.792555, 48.353246], [11.79275, 48.353261], [11.79277, 48.353145], [11.792575, 48.353131], [11.792441, 48.353121], [11.792497, 48.352797], [11.792632, 48.352807], [11.792808, 48.352821], [11.792825, 48.352722], [11.792649, 48.352708], [11.792511, 48.352698], [11.792518, 48.352662], [11.792534, 48.352567], [11.792565, 48.352387], [11.7927, 48.352397], [11.792902, 48.352412], [11.792916, 48.35233], [11.792713, 48.352314], [11.792568, 48.352303], [11.7926, 48.352114], [11.792743, 48.352125], [11.792934, 48.352139], [11.792947, 48.352062], [11.792756, 48.352047], [11.792617, 48.352036], [11.792667, 48.351746], [11.792803, 48.351756], [11.793, 48.351771], [11.793015, 48.351679], [11.792817, 48.351664], [11.792675, 48.351653], [11.79272, 48.351387], [11.792726, 48.351356], [11.792865, 48.351367], [11.793094, 48.351384], [11.793107, 48.351305], [11.792878, 48.351288], [11.792743, 48.351277], [11.792764, 48.351157], [11.792897, 48.351167], [11.793117, 48.351184], [11.793132, 48.351097], [11.792911, 48.351081], [11.792776, 48.35107], [11.792818, 48.350826], [11.792825, 48.350787], [11.792957, 48.350797], [11.793187, 48.350815], [11.793204, 48.350716], [11.792972, 48.350698], [11.792851, 48.350689], [11.792914, 48.350321], [11.793031, 48.35033], [11.793262, 48.350348], [11.793278, 48.350253], [11.793046, 48.350235], [11.792936, 48.350227], [11.792995, 48.349884], [11.793101, 48.349892], [11.793278, 48.349905], [11.793293, 48.349819], [11.793115, 48.349805], [11.792882, 48.349787], [11.792849, 48.34998], [11.792841, 48.350026], [11.792544, 48.350004], [11.792406, 48.350794], [11.792328, 48.351243], [11.792308, 48.351354], [11.792102, 48.352534], [11.792087, 48.352629], [11.792079, 48.352665], [11.791884, 48.352649], [11.791815, 48.352644], [11.791944, 48.351906], [11.791781, 48.351894], [11.791646, 48.35263], [11.791589, 48.352984], [11.79156, 48.353175], [11.791525, 48.353399], [11.790667, 48.353333], [11.789727, 48.35326], [11.789652, 48.353254], [11.789394, 48.354801], [11.789962, 48.354841], [11.790125, 48.354853], [11.790161, 48.354855], [11.790171, 48.354856], [11.790563, 48.354884], [11.790598, 48.354886], [11.791269, 48.354934], [11.791186, 48.355405], [11.791012, 48.356425], [11.791193, 48.356438], [11.791323, 48.355685], [11.791556, 48.355703], [11.791542, 48.355786], [11.79153, 48.355853], [11.791423, 48.356475], [11.791414, 48.356527], [11.791092, 48.358394], [11.791401, 48.358418], [11.791387, 48.358496], [11.791368, 48.358607], [11.791601, 48.358624], [11.791826, 48.358641]]]}}, {"type": "Feature", "properties": {"kind": "building", "h": 9.0, "name": ""}, "geometry": {"type": "Polygon", "coordinates": [[[11.80684, 48.347145], [11.806858, 48.347147], [11.807054, 48.347164], [11.80709, 48.346974], [11.807074, 48.346973], [11.806875, 48.346956], [11.80684, 48.347145]]]}}, {"type": "Feature", "properties": {"kind": "building", "h": 9.0, "name": ""}, "geometry": {"type": "Polygon", "coordinates": [[[11.796243, 48.349319], [11.796255, 48.349237], [11.796256, 48.349231], [11.796031, 48.349217], [11.79603, 48.349222], [11.796018, 48.349305], [11.796095, 48.34931], [11.796144, 48.349313], [11.796243, 48.349319]]]}}, {"type": "Feature", "properties": {"kind": "building", "h": 3.5, "name": ""}, "geometry": {"type": "Polygon", "coordinates": [[[11.806503, 48.355286], [11.80651, 48.355236], [11.806623, 48.355243], [11.806615, 48.355294], [11.806503, 48.355286]]]}}, {"type": "Feature", "properties": {"kind": "building", "h": 9.0, "name": ""}, "geometry": {"type": "Polygon", "coordinates": [[[11.805843, 48.357487], [11.805873, 48.357313], [11.805975, 48.357321], [11.805945, 48.357494], [11.805843, 48.357487]]]}}, {"type": "Feature", "properties": {"kind": "building", "h": 9.0, "name": ""}, "geometry": {"type": "Polygon", "coordinates": [[[11.805945, 48.357494], [11.805975, 48.357321], [11.806078, 48.357329], [11.806048, 48.357502], [11.805945, 48.357494]]]}}, {"type": "Feature", "properties": {"kind": "building", "h": 9.0, "name": ""}, "geometry": {"type": "Polygon", "coordinates": [[[11.80553, 48.357251], [11.805534, 48.357216], [11.80562, 48.35722], [11.805616, 48.357256], [11.80553, 48.357251]]]}}, {"type": "Feature", "properties": {"kind": "building", "h": 9.0, "name": ""}, "geometry": {"type": "Polygon", "coordinates": [[[11.805501, 48.357208], [11.805542, 48.35721], [11.805544, 48.357185], [11.805503, 48.357183], [11.805501, 48.357208]]]}}, {"type": "Feature", "properties": {"kind": "runway", "ref": "08R/26L", "w": 60.0, "name": ""}, "geometry": {"type": "LineString", "coordinates": [[11.751109, 48.340693], [11.752606, 48.340809], [11.752996, 48.340838], [11.753614, 48.340886], [11.766673, 48.34189], [11.772431, 48.342332], [11.77479, 48.342514], [11.779618, 48.342885], [11.780642, 48.342964], [11.782167, 48.343081], [11.788328, 48.343555], [11.78921, 48.343623], [11.802097, 48.344614], [11.802857, 48.344672], [11.803059, 48.344688], [11.804576, 48.344804]]}}, {"type": "Feature", "properties": {"kind": "runway", "ref": "08L/26R", "w": 60.0, "name": ""}, "geometry": {"type": "LineString", "coordinates": [[11.767573, 48.362763], [11.769223, 48.362887], [11.76949, 48.362908], [11.770155, 48.362959], [11.783244, 48.363963], [11.78533, 48.364123], [11.790486, 48.364519], [11.791812, 48.364621], [11.792477, 48.364672], [11.798004, 48.365096], [11.799986, 48.365248], [11.804942, 48.365628], [11.818697, 48.366684], [11.819193, 48.366722], [11.819348, 48.366734], [11.82113, 48.36687]]}}, {"type": "Feature", "properties": {"kind": "gate", "ref": "D23", "gtype": "gate"}, "geometry": {"type": "Point", "coordinates": [11.784904, 48.34876]}}, {"type": "Feature", "properties": {"kind": "gate", "ref": "D21", "gtype": "gate"}, "geometry": {"type": "Point", "coordinates": [11.784647, 48.348917]}}, {"type": "Feature", "properties": {"kind": "gate", "ref": "D20", "gtype": "gate"}, "geometry": {"type": "Point", "coordinates": [11.784799, 48.349036]}}, {"type": "Feature", "properties": {"kind": "gate", "ref": "D17", "gtype": "gate"}, "geometry": {"type": "Point", "coordinates": [11.784778, 48.349153]}}, {"type": "Feature", "properties": {"kind": "gate", "ref": "D16", "gtype": "gate"}, "geometry": {"type": "Point", "coordinates": [11.784578, 48.349314]}}, {"type": "Feature", "properties": {"kind": "gate", "ref": "D15", "gtype": "gate"}, "geometry": {"type": "Point", "coordinates": [11.784491, 48.349738]}}, {"type": "Feature", "properties": {"kind": "gate", "ref": "G47,G48", "gtype": "gate"}, "geometry": {"type": "Point", "coordinates": [11.793092, 48.349848]}}, {"type": "Feature", "properties": {"kind": "gate", "ref": "G45,G46", "gtype": "gate"}, "geometry": {"type": "Point", "coordinates": [11.793022, 48.350298]}}, {"type": "Feature", "properties": {"kind": "gate", "ref": "D14", "gtype": "gate"}, "geometry": {"type": "Point", "coordinates": [11.784553, 48.350392]}}, {"type": "Feature", "properties": {"kind": "gate", "ref": "D11/D12", "gtype": "gate"}, "geometry": {"type": "Point", "coordinates": [11.78435, 48.350297]}}, {"type": "Feature", "properties": {"kind": "gate", "ref": "G43,G44", "gtype": "gate"}, "geometry": {"type": "Point", "coordinates": [11.792943, 48.350756]}}, {"type": "Feature", "properties": {"kind": "gate", "ref": "D06/D07", "gtype": "gate"}, "geometry": {"type": "Point", "coordinates": [11.784326, 48.350776]}}, {"type": "Feature", "properties": {"kind": "gate", "ref": "G41,G42", "gtype": "gate"}, "geometry": {"type": "Point", "coordinates": [11.792874, 48.351126]}}, {"type": "Feature", "properties": {"kind": "gate", "ref": "D03/D04", "gtype": "gate"}, "geometry": {"type": "Point", "coordinates": [11.784245, 48.351202]}}, {"type": "Feature", "properties": {"kind": "gate", "ref": "G39,G40", "gtype": "gate"}, "geometry": {"type": "Point", "coordinates": [11.792838, 48.351339]}}, {"type": "Feature", "properties": {"kind": "gate", "ref": "C10/D01", "gtype": "gate"}, "geometry": {"type": "Point", "coordinates": [11.784187, 48.351537]}}, {"type": "Feature", "properties": {"kind": "gate", "ref": "G37,G38", "gtype": "gate"}, "geometry": {"type": "Point", "coordinates": [11.792783, 48.351726]}}, {"type": "Feature", "properties": {"kind": "gate", "ref": "G35,G36", "gtype": "gate"}, "geometry": {"type": "Point", "coordinates": [11.792712, 48.3521]}}, {"type": "Feature", "properties": {"kind": "gate", "ref": "G33,G34", "gtype": "gate"}, "geometry": {"type": "Point", "coordinates": [11.792662, 48.35237]}}, {"type": "Feature", "properties": {"kind": "gate", "ref": "G31,G32", "gtype": "gate"}, "geometry": {"type": "Point", "coordinates": [11.792596, 48.352782]}}, {"type": "Feature", "properties": {"kind": "gate", "ref": "G29,G30", "gtype": "gate"}, "geometry": {"type": "Point", "coordinates": [11.79252, 48.353213]}}, {"type": "Feature", "properties": {"kind": "gate", "ref": "G27,G28", "gtype": "gate"}, "geometry": {"type": "Point", "coordinates": [11.792431, 48.353894]}}, {"type": "Feature", "properties": {"kind": "gate", "ref": "G25,G26", "gtype": "gate"}, "geometry": {"type": "Point", "coordinates": [11.792383, 48.354252]}}, {"type": "Feature", "properties": {"kind": "gate", "ref": "G23,G24", "gtype": "gate"}, "geometry": {"type": "Point", "coordinates": [11.792289, 48.354634]}}, {"type": "Feature", "properties": {"kind": "gate", "ref": "G21,G22", "gtype": "gate"}, "geometry": {"type": "Point", "coordinates": [11.792221, 48.355007]}}, {"type": "Feature", "properties": {"kind": "gate", "ref": "G19,G20", "gtype": "gate"}, "geometry": {"type": "Point", "coordinates": [11.792165, 48.355278]}}, {"type": "Feature", "properties": {"kind": "gate", "ref": "G17,G18", "gtype": "gate"}, "geometry": {"type": "Point", "coordinates": [11.792103, 48.355681]}}, {"type": "Feature", "properties": {"kind": "gate", "ref": "G15,G16", "gtype": "gate"}, "geometry": {"type": "Point", "coordinates": [11.792018, 48.356169]}}, {"type": "Feature", "properties": {"kind": "gate", "ref": "A28", "gtype": "gate"}, "geometry": {"type": "Point", "coordinates": [11.783554, 48.356245]}}, {"type": "Feature", "properties": {"kind": "gate", "ref": "A26/27", "gtype": "gate"}, "geometry": {"type": "Point", "coordinates": [11.783352, 48.356423]}}, {"type": "Feature", "properties": {"kind": "gate", "ref": "G13,G14", "gtype": "gate"}, "geometry": {"type": "Point", "coordinates": [11.791942, 48.356567]}}, {"type": "Feature", "properties": {"kind": "gate", "ref": "A24/A25", "gtype": "gate"}, "geometry": {"type": "Point", "coordinates": [11.783392, 48.356604]}}, {"type": "Feature", "properties": {"kind": "gate", "ref": "A23", "gtype": "gate"}, "geometry": {"type": "Point", "coordinates": [11.783476, 48.35666]}}, {"type": "Feature", "properties": {"kind": "gate", "ref": "A21/22", "gtype": "gate"}, "geometry": {"type": "Point", "coordinates": [11.783278, 48.356856]}}, {"type": "Feature", "properties": {"kind": "gate", "ref": "G11,G12", "gtype": "gate"}, "geometry": {"type": "Point", "coordinates": [11.791869, 48.356941]}}, {"type": "Feature", "properties": {"kind": "gate", "ref": "A20", "gtype": "gate"}, "geometry": {"type": "Point", "coordinates": [11.783397, 48.357128]}}, {"type": "Feature", "properties": {"kind": "gate", "ref": "G09,G10", "gtype": "gate"}, "geometry": {"type": "Point", "coordinates": [11.791848, 48.357155]}}, {"type": "Feature", "properties": {"kind": "gate", "ref": "A18/A19", "gtype": "gate"}, "geometry": {"type": "Point", "coordinates": [11.783165, 48.357458]}}, {"type": "Feature", "properties": {"kind": "gate", "ref": "G07,G08", "gtype": "gate"}, "geometry": {"type": "Point", "coordinates": [11.79178, 48.357537]}}, {"type": "Feature", "properties": {"kind": "gate", "ref": "A16/A17", "gtype": "gate"}, "geometry": {"type": "Point", "coordinates": [11.7831, 48.357889]}}, {"type": "Feature", "properties": {"kind": "gate", "ref": "G05,G06", "gtype": "gate"}, "geometry": {"type": "Point", "coordinates": [11.79171, 48.35795]}}, {"type": "Feature", "properties": {"kind": "gate", "ref": "A14/A15", "gtype": "gate"}, "geometry": {"type": "Point", "coordinates": [11.783081, 48.358061]}}, {"type": "Feature", "properties": {"kind": "gate", "ref": "G03,G04", "gtype": "gate"}, "geometry": {"type": "Point", "coordinates": [11.791693, 48.358192]}}, {"type": "Feature", "properties": {"kind": "gate", "ref": "A11/A12", "gtype": "gate"}, "geometry": {"type": "Point", "coordinates": [11.783037, 48.358363]}}, {"type": "Feature", "properties": {"kind": "gate", "ref": "C9", "gtype": "gate"}, "geometry": {"type": "Point", "coordinates": [11.784291, 48.351914]}}, {"type": "Feature", "properties": {"kind": "gate", "ref": "C8", "gtype": "gate"}, "geometry": {"type": "Point", "coordinates": [11.784147, 48.352536]}}, {"type": "Feature", "properties": {"kind": "gate", "ref": "C06/C07", "gtype": "gate"}, "geometry": {"type": "Point", "coordinates": [11.783855, 48.352647]}}, {"type": "Feature", "properties": {"kind": "gate", "ref": "C5", "gtype": "gate"}, "geometry": {"type": "Point", "coordinates": [11.784106, 48.352885]}}, {"type": "Feature", "properties": {"kind": "gate", "ref": "C03/C04", "gtype": "gate"}, "geometry": {"type": "Point", "coordinates": [11.783783, 48.353072]}}, {"type": "Feature", "properties": {"kind": "gate", "ref": "B17/C01", "gtype": "gate"}, "geometry": {"type": "Point", "coordinates": [11.7837, 48.353504]}}, {"type": "Feature", "properties": {"kind": "gate", "ref": "H05,H06", "gtype": "gate"}, "geometry": {"type": "Point", "coordinates": [11.791771, 48.357934]}}, {"type": "Feature", "properties": {"kind": "gate", "ref": "H03,H04", "gtype": "gate"}, "geometry": {"type": "Point", "coordinates": [11.791739, 48.35817]}}, {"type": "Feature", "properties": {"kind": "gate", "ref": "G01,G02", "gtype": "gate"}, "geometry": {"type": "Point", "coordinates": [11.79159, 48.358568]}}, {"type": "Feature", "properties": {"kind": "gate", "ref": "H01,H02", "gtype": "gate"}, "geometry": {"type": "Point", "coordinates": [11.791636, 48.358563]}}, {"type": "Feature", "properties": {"kind": "gate", "ref": "H19,H20", "gtype": "gate"}, "geometry": {"type": "Point", "coordinates": [11.792247, 48.355289]}}, {"type": "Feature", "properties": {"kind": "gate", "ref": "H17,H18", "gtype": "gate"}, "geometry": {"type": "Point", "coordinates": [11.792176, 48.354948]}}, {"type": "Feature", "properties": {"kind": "gate", "ref": "H15,H16", "gtype": "gate"}, "geometry": {"type": "Point", "coordinates": [11.792103, 48.356164]}}, {"type": "Feature", "properties": {"kind": "gate", "ref": "H13,H14", "gtype": "gate"}, "geometry": {"type": "Point", "coordinates": [11.792035, 48.35657]}}, {"type": "Feature", "properties": {"kind": "gate", "ref": "H11,H12", "gtype": "gate"}, "geometry": {"type": "Point", "coordinates": [11.791977, 48.356927]}}, {"type": "Feature", "properties": {"kind": "gate", "ref": "H09,H10", "gtype": "gate"}, "geometry": {"type": "Point", "coordinates": [11.791941, 48.357143]}}, {"type": "Feature", "properties": {"kind": "gate", "ref": "H07,H08", "gtype": "gate"}, "geometry": {"type": "Point", "coordinates": [11.791864, 48.357519]}}, {"type": "Feature", "properties": {"kind": "gate", "ref": "H47,H48", "gtype": "gate"}, "geometry": {"type": "Point", "coordinates": [11.793177, 48.349854]}}, {"type": "Feature", "properties": {"kind": "gate", "ref": "H45,H46", "gtype": "gate"}, "geometry": {"type": "Point", "coordinates": [11.793107, 48.350304]}}, {"type": "Feature", "properties": {"kind": "gate", "ref": "H43,H44", "gtype": "gate"}, "geometry": {"type": "Point", "coordinates": [11.793028, 48.350762]}}, {"type": "Feature", "properties": {"kind": "gate", "ref": "H41,H42", "gtype": "gate"}, "geometry": {"type": "Point", "coordinates": [11.79296, 48.351132]}}, {"type": "Feature", "properties": {"kind": "gate", "ref": "H39,H40", "gtype": "gate"}, "geometry": {"type": "Point", "coordinates": [11.792923, 48.351345]}}, {"type": "Feature", "properties": {"kind": "gate", "ref": "H37,H38", "gtype": "gate"}, "geometry": {"type": "Point", "coordinates": [11.792868, 48.351732]}}, {"type": "Feature", "properties": {"kind": "gate", "ref": "H35,H36", "gtype": "gate"}, "geometry": {"type": "Point", "coordinates": [11.792797, 48.352106]}}, {"type": "Feature", "properties": {"kind": "gate", "ref": "H33,H34", "gtype": "gate"}, "geometry": {"type": "Point", "coordinates": [11.792747, 48.352376]}}, {"type": "Feature", "properties": {"kind": "gate", "ref": "H31,H32", "gtype": "gate"}, "geometry": {"type": "Point", "coordinates": [11.792682, 48.352788]}}, {"type": "Feature", "properties": {"kind": "gate", "ref": "H29,H30", "gtype": "gate"}, "geometry": {"type": "Point", "coordinates": [11.792605, 48.353219]}}, {"type": "Feature", "properties": {"kind": "gate", "ref": "H27,H28", "gtype": "gate"}, "geometry": {"type": "Point", "coordinates": [11.792516, 48.3539]}}, {"type": "Feature", "properties": {"kind": "gate", "ref": "H25,H26", "gtype": "gate"}, "geometry": {"type": "Point", "coordinates": [11.792469, 48.354257]}}, {"type": "Feature", "properties": {"kind": "gate", "ref": "H23,H24", "gtype": "gate"}, "geometry": {"type": "Point", "coordinates": [11.792374, 48.354639]}}, {"type": "Feature", "properties": {"kind": "gate", "ref": "H21,H22", "gtype": "gate"}, "geometry": {"type": "Point", "coordinates": [11.792306, 48.355013]}}, {"type": "Feature", "properties": {"kind": "gate", "ref": "L28,L30", "gtype": "gate"}, "geometry": {"type": "Point", "coordinates": [11.799757, 48.352013]}}, {"type": "Feature", "properties": {"kind": "gate", "ref": "K28,K30", "gtype": "gate"}, "geometry": {"type": "Point", "coordinates": [11.799758, 48.352043]}}, {"type": "Feature", "properties": {"kind": "gate", "ref": "L27", "gtype": "gate"}, "geometry": {"type": "Point", "coordinates": [11.798319, 48.352337]}}, {"type": "Feature", "properties": {"kind": "gate", "ref": "K27", "gtype": "gate"}, "geometry": {"type": "Point", "coordinates": [11.798315, 48.352362]}}, {"type": "Feature", "properties": {"kind": "gate", "ref": "L25", "gtype": "gate"}, "geometry": {"type": "Point", "coordinates": [11.79826, 48.352686]}}, {"type": "Feature", "properties": {"kind": "gate", "ref": "K25", "gtype": "gate"}, "geometry": {"type": "Point", "coordinates": [11.798252, 48.35273]}}, {"type": "Feature", "properties": {"kind": "gate", "ref": "L24,L26", "gtype": "gate"}, "geometry": {"type": "Point", "coordinates": [11.799635, 48.35285]}}, {"type": "Feature", "properties": {"kind": "gate", "ref": "K24,K26", "gtype": "gate"}, "geometry": {"type": "Point", "coordinates": [11.799634, 48.352901]}}, {"type": "Feature", "properties": {"kind": "gate", "ref": "L23", "gtype": "gate"}, "geometry": {"type": "Point", "coordinates": [11.798179, 48.353062]}}, {"type": "Feature", "properties": {"kind": "gate", "ref": "K23", "gtype": "gate"}, "geometry": {"type": "Point", "coordinates": [11.798179, 48.353094]}}, {"type": "Feature", "properties": {"kind": "gate", "ref": "L21", "gtype": "gate"}, "geometry": {"type": "Point", "coordinates": [11.798099, 48.353453]}}, {"type": "Feature", "properties": {"kind": "gate", "ref": "K21", "gtype": "gate"}, "geometry": {"type": "Point", "coordinates": [11.798094, 48.353485]}}, {"type": "Feature", "properties": {"kind": "gate", "ref": "L22", "gtype": "gate"}, "geometry": {"type": "Point", "coordinates": [11.799597, 48.353609]}}, {"type": "Feature", "properties": {"kind": "gate", "ref": "K22", "gtype": "gate"}, "geometry": {"type": "Point", "coordinates": [11.79959, 48.353654]}}, {"type": "Feature", "properties": {"kind": "gate", "ref": "L19", "gtype": "gate"}, "geometry": {"type": "Point", "coordinates": [11.798008, 48.353882]}}, {"type": "Feature", "properties": {"kind": "gate", "ref": "K19", "gtype": "gate"}, "geometry": {"type": "Point", "coordinates": [11.798001, 48.353931]}}, {"type": "Feature", "properties": {"kind": "gate", "ref": "K20", "gtype": "gate"}, "geometry": {"type": "Point", "coordinates": [11.799823, 48.354042]}}, {"type": "Feature", "properties": {"kind": "gate", "ref": "L15", "gtype": "gate"}, "geometry": {"type": "Point", "coordinates": [11.797907, 48.354447]}}, {"type": "Feature", "properties": {"kind": "gate", "ref": "K18", "gtype": "gate"}, "geometry": {"type": "Point", "coordinates": [11.799751, 48.354473]}}, {"type": "Feature", "properties": {"kind": "gate", "ref": "K15", "gtype": "gate"}, "geometry": {"type": "Point", "coordinates": [11.797908, 48.35449]}}, {"type": "Feature", "properties": {"kind": "gate", "ref": "K16", "gtype": "gate"}, "geometry": {"type": "Point", "coordinates": [11.799661, 48.354901]}}, {"type": "Feature", "properties": {"kind": "gate", "ref": "L13", "gtype": "gate"}, "geometry": {"type": "Point", "coordinates": [11.797825, 48.354968]}}, {"type": "Feature", "properties": {"kind": "gate", "ref": "K13", "gtype": "gate"}, "geometry": {"type": "Point", "coordinates": [11.797817, 48.355016]}}, {"type": "Feature", "properties": {"kind": "gate", "ref": "K14", "gtype": "gate"}, "geometry": {"type": "Point", "coordinates": [11.799596, 48.355329]}}, {"type": "Feature", "properties": {"kind": "gate", "ref": "L11", "gtype": "gate"}, "geometry": {"type": "Point", "coordinates": [11.797771, 48.355549]}}, {"type": "Feature", "properties": {"kind": "gate", "ref": "K11", "gtype": "gate"}, "geometry": {"type": "Point", "coordinates": [11.797764, 48.355596]}}, {"type": "Feature", "properties": {"kind": "gate", "ref": "K12", "gtype": "gate"}, "geometry": {"type": "Point", "coordinates": [11.79953, 48.355711]}}, {"type": "Feature", "properties": {"kind": "gate", "ref": "L09", "gtype": "gate"}, "geometry": {"type": "Point", "coordinates": [11.797685, 48.356049]}}, {"type": "Feature", "properties": {"kind": "gate", "ref": "K09", "gtype": "gate"}, "geometry": {"type": "Point", "coordinates": [11.797676, 48.356093]}}, {"type": "Feature", "properties": {"kind": "gate", "ref": "L06,L08", "gtype": "gate"}, "geometry": {"type": "Point", "coordinates": [11.799067, 48.356165]}}, {"type": "Feature", "properties": {"kind": "gate", "ref": "K08, K10", "gtype": "gate"}, "geometry": {"type": "Point", "coordinates": [11.799056, 48.356211]}}, {"type": "Feature", "properties": {"kind": "gate", "ref": "L07", "gtype": "gate"}, "geometry": {"type": "Point", "coordinates": [11.797613, 48.35646]}}, {"type": "Feature", "properties": {"kind": "gate", "ref": "K07", "gtype": "gate"}, "geometry": {"type": "Point", "coordinates": [11.797613, 48.356493]}}, {"type": "Feature", "properties": {"kind": "gate", "ref": "L05", "gtype": "gate"}, "geometry": {"type": "Point", "coordinates": [11.797548, 48.356815]}}, {"type": "Feature", "properties": {"kind": "gate", "ref": "K05", "gtype": "gate"}, "geometry": {"type": "Point", "coordinates": [11.797546, 48.356851]}}, {"type": "Feature", "properties": {"kind": "gate", "ref": "L02,L04", "gtype": "gate"}, "geometry": {"type": "Point", "coordinates": [11.798915, 48.356936]}}, {"type": "Feature", "properties": {"kind": "gate", "ref": "K06, K04", "gtype": "gate"}, "geometry": {"type": "Point", "coordinates": [11.798909, 48.35699]}}, {"type": "Feature", "properties": {"kind": "gate", "ref": "L03", "gtype": "gate"}, "geometry": {"type": "Point", "coordinates": [11.797487, 48.3572]}}, {"type": "Feature", "properties": {"kind": "gate", "ref": "K03", "gtype": "gate"}, "geometry": {"type": "Point", "coordinates": [11.797484, 48.357247]}}, {"type": "Feature", "properties": {"kind": "gate", "ref": "L01", "gtype": "gate"}, "geometry": {"type": "Point", "coordinates": [11.797426, 48.357439]}}, {"type": "Feature", "properties": {"kind": "gate", "ref": "K01", "gtype": "gate"}, "geometry": {"type": "Point", "coordinates": [11.797426, 48.35748]}}, {"type": "Feature", "properties": {"kind": "gate", "ref": "B14", "gtype": "gate"}, "geometry": {"type": "Point", "coordinates": [11.783865, 48.354219]}}, {"type": "Feature", "properties": {"kind": "gate", "ref": "B12", "gtype": "gate"}, "geometry": {"type": "Point", "coordinates": [11.783833, 48.354308]}}, {"type": "Feature", "properties": {"kind": "gate", "ref": "B11", "gtype": "gate"}, "geometry": {"type": "Point", "coordinates": [11.783822, 48.354397]}}, {"type": "Feature", "properties": {"kind": "gate", "ref": "B15/B16", "gtype": "gate"}, "geometry": {"type": "Point", "coordinates": [11.783704, 48.354112]}}, {"type": "Feature", "properties": {"kind": "gate", "ref": "B08/B09", "gtype": "gate"}, "geometry": {"type": "Point", "coordinates": [11.783634, 48.354538]}}, {"type": "Feature", "properties": {"kind": "gate", "ref": "B5", "gtype": "gate"}, "geometry": {"type": "Point", "coordinates": [11.783763, 48.354745]}}, {"type": "Feature", "properties": {"kind": "gate", "ref": "B2", "gtype": "gate"}, "geometry": {"type": "Point", "coordinates": [11.78368, 48.355184]}}, {"type": "Feature", "properties": {"kind": "gate", "ref": "B06/B07", "gtype": "gate"}, "geometry": {"type": "Point", "coordinates": [11.783463, 48.354608]}}, {"type": "Feature", "properties": {"kind": "gate", "ref": "B11/B12", "gtype": "gate"}, "geometry": {"type": "Point", "coordinates": [11.783538, 48.354184]}}, {"type": "Feature", "properties": {"kind": "gate", "ref": "D09/D10", "gtype": "gate"}, "geometry": {"type": "Point", "coordinates": [11.784142, 48.350411]}}, {"type": "Feature", "properties": {"kind": "gate", "ref": "A09/A10", "gtype": "gate"}, "geometry": {"type": "Point", "coordinates": [11.783274, 48.358281]}}, {"type": "Feature", "properties": {"kind": "gate", "ref": "G84", "gtype": "gate"}, "geometry": {"type": "Point", "coordinates": [11.792825, 48.350215]}}, {"type": "Feature", "properties": {"kind": "gate", "ref": "G83", "gtype": "gate"}, "geometry": {"type": "Point", "coordinates": [11.792853, 48.350082]}}, {"type": "Feature", "properties": {"kind": "gate", "ref": "G82", "gtype": "gate"}, "geometry": {"type": "Point", "coordinates": [11.79259, 48.350064]}}, {"type": "Feature", "properties": {"kind": "gate", "ref": "G81", "gtype": "gate"}, "geometry": {"type": "Point", "coordinates": [11.79257, 48.350205]}}, {"type": "Feature", "properties": {"kind": "gate", "ref": "G67", "gtype": "gate"}, "geometry": {"type": "Point", "coordinates": [11.792338, 48.351516]}}, {"type": "Feature", "properties": {"kind": "gate", "ref": "G66", "gtype": "gate"}, "geometry": {"type": "Point", "coordinates": [11.792304, 48.351677]}}, {"type": "Feature", "properties": {"kind": "gate", "ref": "G65", "gtype": "gate"}, "geometry": {"type": "Point", "coordinates": [11.792272, 48.351832]}}, {"type": "Feature", "properties": {"kind": "gate", "ref": "G64", "gtype": "gate"}, "geometry": {"type": "Point", "coordinates": [11.792248, 48.351946]}}, {"type": "Feature", "properties": {"kind": "gate", "ref": "G63", "gtype": "gate"}, "geometry": {"type": "Point", "coordinates": [11.792226, 48.352054]}}, {"type": "Feature", "properties": {"kind": "gate", "ref": "G62", "gtype": "gate"}, "geometry": {"type": "Point", "coordinates": [11.792178, 48.352341]}}, {"type": "Feature", "properties": {"kind": "gate", "ref": "G61", "gtype": "gate"}, "geometry": {"type": "Point", "coordinates": [11.792161, 48.352435]}}, {"type": "Feature", "properties": {"kind": "gate", "ref": "G68", "gtype": "gate"}, "geometry": {"type": "Point", "coordinates": [11.792601, 48.351557]}}, {"type": "Feature", "properties": {"kind": "gate", "ref": "G69", "gtype": "gate"}, "geometry": {"type": "Point", "coordinates": [11.792558, 48.351835]}}, {"type": "Feature", "properties": {"kind": "gate", "ref": "G70", "gtype": "gate"}, "geometry": {"type": "Point", "coordinates": [11.79254, 48.351952]}}, {"type": "Feature", "properties": {"kind": "gate", "ref": "G72", "gtype": "gate"}, "geometry": {"type": "Point", "coordinates": [11.792468, 48.352416]}}, {"type": "Feature", "properties": {"kind": "gate", "ref": "J06", "gtype": "gate"}, "geometry": {"type": "Point", "coordinates": [11.799468, 48.354553]}}, {"type": "Feature", "properties": {"kind": "gate", "ref": "J05", "gtype": "gate"}, "geometry": {"type": "Point", "coordinates": [11.799465, 48.35457]}}, {"type": "Feature", "properties": {"kind": "gate", "ref": "J04", "gtype": "gate"}, "geometry": {"type": "Point", "coordinates": [11.799459, 48.35461]}}, {"type": "Feature", "properties": {"kind": "gate", "ref": "J03", "gtype": "gate"}, "geometry": {"type": "Point", "coordinates": [11.799456, 48.354627]}}, {"type": "Feature", "properties": {"kind": "gate", "ref": "J02", "gtype": "gate"}, "geometry": {"type": "Point", "coordinates": [11.799451, 48.354658]}}, {"type": "Feature", "properties": {"kind": "gate", "ref": "J01", "gtype": "gate"}, "geometry": {"type": "Point", "coordinates": [11.799449, 48.354676]}}, {"type": "Feature", "properties": {"kind": "gate", "ref": "A40", "gtype": "gate"}, "geometry": {"type": "Point", "coordinates": [11.781817, 48.355485]}}, {"type": "Feature", "properties": {"kind": "gate", "ref": "A41", "gtype": "gate"}, "geometry": {"type": "Point", "coordinates": [11.78156, 48.355475]}}, {"type": "Feature", "properties": {"kind": "gate", "ref": "A44", "gtype": "gate"}, "geometry": {"type": "Point", "coordinates": [11.780623, 48.355375]}}, {"type": "Feature", "properties": {"kind": "gate", "ref": "A45", "gtype": "gate"}, "geometry": {"type": "Point", "coordinates": [11.780394, 48.355369]}}, {"type": "Feature", "properties": {"kind": "gate", "ref": "A48", "gtype": "gate"}, "geometry": {"type": "Point", "coordinates": [11.779493, 48.355287]}}, {"type": "Feature", "properties": {"kind": "gate", "ref": "A42", "gtype": "gate"}, "geometry": {"type": "Point", "coordinates": [11.781068, 48.355172]}}, {"type": "Feature", "properties": {"kind": "gate", "ref": "A43", "gtype": "gate"}, "geometry": {"type": "Point", "coordinates": [11.780806, 48.35517]}}, {"type": "Feature", "properties": {"kind": "gate", "ref": "A46", "gtype": "gate"}, "geometry": {"type": "Point", "coordinates": [11.779841, 48.355073]}}, {"type": "Feature", "properties": {"kind": "gate", "ref": "A47", "gtype": "gate"}, "geometry": {"type": "Point", "coordinates": [11.779602, 48.355061]}}, {"type": "Feature", "properties": {"kind": "gate", "ref": "A51", "gtype": "gate"}, "geometry": {"type": "Point", "coordinates": [11.778805, 48.355159]}}, {"type": "Feature", "properties": {"kind": "gate", "ref": "A50", "gtype": "gate"}, "geometry": {"type": "Point", "coordinates": [11.778935, 48.35507]}}, {"type": "Feature", "properties": {"kind": "gate", "ref": "A49", "gtype": "gate"}, "geometry": {"type": "Point", "coordinates": [11.779246, 48.355277]}}, {"type": "Feature", "properties": {"kind": "gate", "ref": "A60", "gtype": "gate"}, "geometry": {"type": "Point", "coordinates": [11.781057, 48.355417]}}, {"type": "Feature", "properties": {"kind": "gate", "ref": "A63", "gtype": "gate"}, "geometry": {"type": "Point", "coordinates": [11.780499, 48.355379]}}, {"type": "Feature", "properties": {"kind": "gate", "ref": "A61", "gtype": "gate"}, "geometry": {"type": "Point", "coordinates": [11.781015, 48.355177]}}, {"type": "Feature", "properties": {"kind": "gate", "ref": "A62", "gtype": "gate"}, "geometry": {"type": "Point", "coordinates": [11.780638, 48.355143]}}, {"type": "Feature", "properties": {"kind": "gate", "ref": "A64", "gtype": "gate"}, "geometry": {"type": "Point", "coordinates": [11.780177, 48.355103]}}, {"type": "Feature", "properties": {"kind": "gate", "ref": "H17,H18", "gtype": "gate"}, "geometry": {"type": "Point", "coordinates": [11.792195, 48.355672]}}, {"type": "Feature", "properties": {"kind": "gate", "ref": "121", "gtype": "parking_position"}, "geometry": {"type": "Point", "coordinates": [11.783032, 48.34873]}}, {"type": "Feature", "properties": {"kind": "gate", "ref": "171", "gtype": "parking_position"}, "geometry": {"type": "Point", "coordinates": [11.77618, 48.357383]}}, {"type": "Feature", "properties": {"kind": "gate", "ref": "172", "gtype": "parking_position"}, "geometry": {"type": "Point", "coordinates": [11.776268, 48.356952]}}, {"type": "Feature", "properties": {"kind": "gate", "ref": "151", "gtype": "parking_position"}, "geometry": {"type": "Point", "coordinates": [11.778805, 48.354271]}}, {"type": "Feature", "properties": {"kind": "gate", "ref": "152", "gtype": "parking_position"}, "geometry": {"type": "Point", "coordinates": [11.778876, 48.353841]}}, {"type": "Feature", "properties": {"kind": "gate", "ref": "155", "gtype": "parking_position"}, "geometry": {"type": "Point", "coordinates": [11.779125, 48.352437]}}, {"type": "Feature", "properties": {"kind": "gate", "ref": "161", "gtype": "parking_position"}, "geometry": {"type": "Point", "coordinates": [11.77935, 48.351103]}}, {"type": "Feature", "properties": {"kind": "gate", "ref": "162", "gtype": "parking_position"}, "geometry": {"type": "Point", "coordinates": [11.779422, 48.350674]}}, {"type": "Feature", "properties": {"kind": "gate", "ref": "163", "gtype": "parking_position"}, "geometry": {"type": "Point", "coordinates": [11.779511, 48.350186]}}, {"type": "Feature", "properties": {"kind": "gate", "ref": "164", "gtype": "parking_position"}, "geometry": {"type": "Point", "coordinates": [11.779622, 48.3497]}}, {"type": "Feature", "properties": {"kind": "gate", "ref": "164Y", "gtype": "parking_position"}, "geometry": {"type": "Point", "coordinates": [11.779687, 48.349533]}}, {"type": "Feature", "properties": {"kind": "gate", "ref": "173", "gtype": "parking_position"}, "geometry": {"type": "Point", "coordinates": [11.776329, 48.356525]}}, {"type": "Feature", "properties": {"kind": "gate", "ref": "174", "gtype": "parking_position"}, "geometry": {"type": "Point", "coordinates": [11.776403, 48.356102]}}, {"type": "Feature", "properties": {"kind": "gate", "ref": "175", "gtype": "parking_position"}, "geometry": {"type": "Point", "coordinates": [11.776489, 48.355621]}}, {"type": "Feature", "properties": {"kind": "gate", "ref": "181", "gtype": "parking_position"}, "geometry": {"type": "Point", "coordinates": [11.776598, 48.354978]}}, {"type": "Feature", "properties": {"kind": "gate", "ref": "182", "gtype": "parking_position"}, "geometry": {"type": "Point", "coordinates": [11.776664, 48.354606]}}, {"type": "Feature", "properties": {"kind": "gate", "ref": "183", "gtype": "parking_position"}, "geometry": {"type": "Point", "coordinates": [11.776738, 48.35418]}}, {"type": "Feature", "properties": {"kind": "gate", "ref": "184", "gtype": "parking_position"}, "geometry": {"type": "Point", "coordinates": [11.776824, 48.353693]}}, {"type": "Feature", "properties": {"kind": "gate", "ref": "185", "gtype": "parking_position"}, "geometry": {"type": "Point", "coordinates": [11.776898, 48.353207]}}, {"type": "Feature", "properties": {"kind": "gate", "ref": "186", "gtype": "parking_position"}, "geometry": {"type": "Point", "coordinates": [11.776989, 48.352719]}}, {"type": "Feature", "properties": {"kind": "gate", "ref": "187", "gtype": "parking_position"}, "geometry": {"type": "Point", "coordinates": [11.777077, 48.352238]}}, {"type": "Feature", "properties": {"kind": "gate", "ref": "188", "gtype": "parking_position"}, "geometry": {"type": "Point", "coordinates": [11.777147, 48.351802]}}, {"type": "Feature", "properties": {"kind": "gate", "ref": "189", "gtype": "parking_position"}, "geometry": {"type": "Point", "coordinates": [11.777216, 48.35144]}}, {"type": "Feature", "properties": {"kind": "gate", "ref": "191", "gtype": "parking_position"}, "geometry": {"type": "Point", "coordinates": [11.777301, 48.350912]}}, {"type": "Feature", "properties": {"kind": "gate", "ref": "192", "gtype": "parking_position"}, "geometry": {"type": "Point", "coordinates": [11.777378, 48.350484]}}, {"type": "Feature", "properties": {"kind": "gate", "ref": "193", "gtype": "parking_position"}, "geometry": {"type": "Point", "coordinates": [11.777452, 48.350058]}}, {"type": "Feature", "properties": {"kind": "gate", "ref": "194", "gtype": "parking_position"}, "geometry": {"type": "Point", "coordinates": [11.777524, 48.349629]}}, {"type": "Feature", "properties": {"kind": "gate", "ref": "195", "gtype": "parking_position"}, "geometry": {"type": "Point", "coordinates": [11.777597, 48.349196]}}, {"type": "Feature", "properties": {"kind": "gate", "ref": "196", "gtype": "parking_position"}, "geometry": {"type": "Point", "coordinates": [11.777682, 48.348723]}}, {"type": "Feature", "properties": {"kind": "gate", "ref": "907", "gtype": "parking_position"}, "geometry": {"type": "Point", "coordinates": [11.766386, 48.348314]}}, {"type": "Feature", "properties": {"kind": "gate", "ref": "906", "gtype": "parking_position"}, "geometry": {"type": "Point", "coordinates": [11.767384, 48.348394]}}, {"type": "Feature", "properties": {"kind": "gate", "ref": "905", "gtype": "parking_position"}, "geometry": {"type": "Point", "coordinates": [11.768524, 48.348482]}}, {"type": "Feature", "properties": {"kind": "gate", "ref": "904", "gtype": "parking_position"}, "geometry": {"type": "Point", "coordinates": [11.769531, 48.34856]}}, {"type": "Feature", "properties": {"kind": "gate", "ref": "903", "gtype": "parking_position"}, "geometry": {"type": "Point", "coordinates": [11.770671, 48.348647]}}, {"type": "Feature", "properties": {"kind": "gate", "ref": "902", "gtype": "parking_position"}, "geometry": {"type": "Point", "coordinates": [11.771674, 48.348724]}}, {"type": "Feature", "properties": {"kind": "gate", "ref": "901", "gtype": "parking_position"}, "geometry": {"type": "Point", "coordinates": [11.772813, 48.348811]}}, {"type": "Feature", "properties": {"kind": "gate", "ref": "101", "gtype": "parking_position"}, "geometry": {"type": "Point", "coordinates": [11.782093, 48.358099]}}, {"type": "Feature", "properties": {"kind": "gate", "ref": "102", "gtype": "parking_position"}, "geometry": {"type": "Point", "coordinates": [11.782173, 48.357612]}}, {"type": "Feature", "properties": {"kind": "gate", "ref": "103", "gtype": "parking_position"}, "geometry": {"type": "Point", "coordinates": [11.782256, 48.357122]}}, {"type": "Feature", "properties": {"kind": "gate", "ref": "104", "gtype": "parking_position"}, "geometry": {"type": "Point", "coordinates": [11.782331, 48.356642]}}, {"type": "Feature", "properties": {"kind": "gate", "ref": "105", "gtype": "parking_position"}, "geometry": {"type": "Point", "coordinates": [11.782433, 48.356144]}}, {"type": "Feature", "properties": {"kind": "gate", "ref": "119", "gtype": "parking_position"}, "geometry": {"type": "Point", "coordinates": [11.783579, 48.34946]}}, {"type": "Feature", "properties": {"kind": "gate", "ref": "120", "gtype": "parking_position"}, "geometry": {"type": "Point", "coordinates": [11.783665, 48.348971]}}, {"type": "Feature", "properties": {"kind": "gate", "ref": "118", "gtype": "parking_position"}, "geometry": {"type": "Point", "coordinates": [11.783496, 48.349948]}}, {"type": "Feature", "properties": {"kind": "gate", "ref": "117B", "gtype": "parking_position"}, "geometry": {"type": "Point", "coordinates": [11.78341, 48.35043]}}, {"type": "Feature", "properties": {"kind": "gate", "ref": "117A", "gtype": "parking_position"}, "geometry": {"type": "Point", "coordinates": [11.783392, 48.350544]}}, {"type": "Feature", "properties": {"kind": "gate", "ref": "116", "gtype": "parking_position"}, "geometry": {"type": "Point", "coordinates": [11.783339, 48.350859]}}, {"type": "Feature", "properties": {"kind": "gate", "ref": "115A", "gtype": "parking_position"}, "geometry": {"type": "Point", "coordinates": [11.783269, 48.351288]}}, {"type": "Feature", "properties": {"kind": "gate", "ref": "115B", "gtype": "parking_position"}, "geometry": {"type": "Point", "coordinates": [11.783284, 48.35121]}}, {"type": "Feature", "properties": {"kind": "gate", "ref": "108", "gtype": "parking_position"}, "geometry": {"type": "Point", "coordinates": [11.782675, 48.3547]}}, {"type": "Feature", "properties": {"kind": "gate", "ref": "109A", "gtype": "parking_position"}, "geometry": {"type": "Point", "coordinates": [11.782737, 48.354323]}}, {"type": "Feature", "properties": {"kind": "gate", "ref": "109B", "gtype": "parking_position"}, "geometry": {"type": "Point", "coordinates": [11.782759, 48.354207]}}, {"type": "Feature", "properties": {"kind": "gate", "ref": "110", "gtype": "parking_position"}, "geometry": {"type": "Point", "coordinates": [11.782842, 48.353725]}}, {"type": "Feature", "properties": {"kind": "gate", "ref": "111A", "gtype": "parking_position"}, "geometry": {"type": "Point", "coordinates": [11.782922, 48.353233]}}, {"type": "Feature", "properties": {"kind": "gate", "ref": "111B", "gtype": "parking_position"}, "geometry": {"type": "Point", "coordinates": [11.782945, 48.353116]}}, {"type": "Feature", "properties": {"kind": "gate", "ref": "112", "gtype": "parking_position"}, "geometry": {"type": "Point", "coordinates": [11.783009, 48.352746]}}, {"type": "Feature", "properties": {"kind": "gate", "ref": "113X", "gtype": "parking_position"}, "geometry": {"type": "Point", "coordinates": [11.783126, 48.352358]}}, {"type": "Feature", "properties": {"kind": "gate", "ref": "113A", "gtype": "parking_position"}, "geometry": {"type": "Point", "coordinates": [11.783084, 48.352302]}}, {"type": "Feature", "properties": {"kind": "gate", "ref": "113B", "gtype": "parking_position"}, "geometry": {"type": "Point", "coordinates": [11.783091, 48.352258]}}, {"type": "Feature", "properties": {"kind": "gate", "ref": "135", "gtype": "parking_position"}, "geometry": {"type": "Point", "coordinates": [11.780741, 48.352664]}}, {"type": "Feature", "properties": {"kind": "gate", "ref": "131", "gtype": "parking_position"}, "geometry": {"type": "Point", "coordinates": [11.780443, 48.354398]}}, {"type": "Feature", "properties": {"kind": "gate", "ref": "132", "gtype": "parking_position"}, "geometry": {"type": "Point", "coordinates": [11.780521, 48.353966]}}, {"type": "Feature", "properties": {"kind": "gate", "ref": "341", "gtype": "parking_position"}, "geometry": {"type": "Point", "coordinates": [11.79935, 48.350194]}}, {"type": "Feature", "properties": {"kind": "gate", "ref": "342", "gtype": "parking_position"}, "geometry": {"type": "Point", "coordinates": [11.799885, 48.350234]}}, {"type": "Feature", "properties": {"kind": "gate", "ref": "343", "gtype": "parking_position"}, "geometry": {"type": "Point", "coordinates": [11.800435, 48.350276]}}, {"type": "Feature", "properties": {"kind": "gate", "ref": "344", "gtype": "parking_position"}, "geometry": {"type": "Point", "coordinates": [11.800981, 48.350318]}}, {"type": "Feature", "properties": {"kind": "gate", "ref": "345", "gtype": "parking_position"}, "geometry": {"type": "Point", "coordinates": [11.801514, 48.350361]}}, {"type": "Feature", "properties": {"kind": "gate", "ref": "346", "gtype": "parking_position"}, "geometry": {"type": "Point", "coordinates": [11.802057, 48.350403]}}, {"type": "Feature", "properties": {"kind": "gate", "ref": "347", "gtype": "parking_position"}, "geometry": {"type": "Point", "coordinates": [11.802596, 48.350443]}}, {"type": "Feature", "properties": {"kind": "gate", "ref": "349", "gtype": "parking_position"}, "geometry": {"type": "Point", "coordinates": [11.803692, 48.350537]}}, {"type": "Feature", "properties": {"kind": "gate", "ref": "", "gtype": "parking_position"}, "geometry": {"type": "Point", "coordinates": [11.80451, 48.350575]}}, {"type": "Feature", "properties": {"kind": "gate", "ref": "", "gtype": "parking_position"}, "geometry": {"type": "Point", "coordinates": [11.805106, 48.350619]}}, {"type": "Feature", "properties": {"kind": "gate", "ref": "348", "gtype": "parking_position"}, "geometry": {"type": "Point", "coordinates": [11.803142, 48.350486]}}, {"type": "Feature", "properties": {"kind": "gate", "ref": "261", "gtype": "parking_position"}, "geometry": {"type": "Point", "coordinates": [11.79793, 48.350128]}}, {"type": "Feature", "properties": {"kind": "gate", "ref": "262", "gtype": "parking_position"}, "geometry": {"type": "Point", "coordinates": [11.798262, 48.350123]}}, {"type": "Feature", "properties": {"kind": "gate", "ref": "263", "gtype": "parking_position"}, "geometry": {"type": "Point", "coordinates": [11.79858, 48.350183]}}, {"type": "Feature", "properties": {"kind": "gate", "ref": "586", "gtype": "parking_position"}, "geometry": {"type": "Point", "coordinates": [11.804892, 48.359333]}}, {"type": "Feature", "properties": {"kind": "gate", "ref": "585", "gtype": "parking_position"}, "geometry": {"type": "Point", "coordinates": [11.804344, 48.359293]}}, {"type": "Feature", "properties": {"kind": "gate", "ref": "584", "gtype": "parking_position"}, "geometry": {"type": "Point", "coordinates": [11.803804, 48.359253]}}, {"type": "Feature", "properties": {"kind": "gate", "ref": "583", "gtype": "parking_position"}, "geometry": {"type": "Point", "coordinates": [11.803259, 48.359213]}}, {"type": "Feature", "properties": {"kind": "gate", "ref": "582", "gtype": "parking_position"}, "geometry": {"type": "Point", "coordinates": [11.802718, 48.359174]}}, {"type": "Feature", "properties": {"kind": "gate", "ref": "581", "gtype": "parking_position"}, "geometry": {"type": "Point", "coordinates": [11.802172, 48.359134]}}, {"type": "Feature", "properties": {"kind": "gate", "ref": "301A", "gtype": "parking_position"}, "geometry": {"type": "Point", "coordinates": [11.799468, 48.357448]}}, {"type": "Feature", "properties": {"kind": "gate", "ref": "301", "gtype": "parking_position"}, "geometry": {"type": "Point", "coordinates": [11.799541, 48.357291]}}, {"type": "Feature", "properties": {"kind": "gate", "ref": "301B", "gtype": "parking_position"}, "geometry": {"type": "Point", "coordinates": [11.79968, 48.357101]}}, {"type": "Feature", "properties": {"kind": "gate", "ref": "302A", "gtype": "parking_position"}, "geometry": {"type": "Point", "coordinates": [11.799663, 48.356676]}}, {"type": "Feature", "properties": {"kind": "gate", "ref": "302", "gtype": "parking_position"}, "geometry": {"type": "Point", "coordinates": [11.799711, 48.356518]}}, {"type": "Feature", "properties": {"kind": "gate", "ref": "302B", "gtype": "parking_position"}, "geometry": {"type": "Point", "coordinates": [11.799847, 48.356307]}}, {"type": "Feature", "properties": {"kind": "gate", "ref": "308", "gtype": "parking_position"}, "geometry": {"type": "Point", "coordinates": [11.80001, 48.355881]}}, {"type": "Feature", "properties": {"kind": "gate", "ref": "309", "gtype": "parking_position"}, "geometry": {"type": "Point", "coordinates": [11.800074, 48.355503]}}, {"type": "Feature", "properties": {"kind": "gate", "ref": "310", "gtype": "parking_position"}, "geometry": {"type": "Point", "coordinates": [11.800145, 48.355071]}}, {"type": "Feature", "properties": {"kind": "gate", "ref": "311", "gtype": "parking_position"}, "geometry": {"type": "Point", "coordinates": [11.800201, 48.354659]}}, {"type": "Feature", "properties": {"kind": "gate", "ref": "312", "gtype": "parking_position"}, "geometry": {"type": "Point", "coordinates": [11.800283, 48.354244]}}, {"type": "Feature", "properties": {"kind": "gate", "ref": "313", "gtype": "parking_position"}, "geometry": {"type": "Point", "coordinates": [11.800278, 48.35384]}}, {"type": "Feature", "properties": {"kind": "gate", "ref": "317B", "gtype": "parking_position"}, "geometry": {"type": "Point", "coordinates": [11.80044, 48.353039]}}, {"type": "Feature", "properties": {"kind": "gate", "ref": "317A", "gtype": "parking_position"}, "geometry": {"type": "Point", "coordinates": [11.800241, 48.353399]}}, {"type": "Feature", "properties": {"kind": "gate", "ref": "317", "gtype": "parking_position"}, "geometry": {"type": "Point", "coordinates": [11.800318, 48.353226]}}, {"type": "Feature", "properties": {"kind": "gate", "ref": "321", "gtype": "parking_position"}, "geometry": {"type": "Point", "coordinates": [11.802155, 48.3564]}}, {"type": "Feature", "properties": {"kind": "gate", "ref": "322", "gtype": "parking_position"}, "geometry": {"type": "Point", "coordinates": [11.802227, 48.355972]}}, {"type": "Feature", "properties": {"kind": "gate", "ref": "323", "gtype": "parking_position"}, "geometry": {"type": "Point", "coordinates": [11.802308, 48.355525]}}, {"type": "Feature", "properties": {"kind": "gate", "ref": "324", "gtype": "parking_position"}, "geometry": {"type": "Point", "coordinates": [11.802378, 48.355096]}}, {"type": "Feature", "properties": {"kind": "gate", "ref": "325", "gtype": "parking_position"}, "geometry": {"type": "Point", "coordinates": [11.80245, 48.35466]}}, {"type": "Feature", "properties": {"kind": "gate", "ref": "327", "gtype": "parking_position"}, "geometry": {"type": "Point", "coordinates": [11.802685, 48.353795]}}, {"type": "Feature", "properties": {"kind": "gate", "ref": "328", "gtype": "parking_position"}, "geometry": {"type": "Point", "coordinates": [11.802764, 48.353348]}}, {"type": "Feature", "properties": {"kind": "gate", "ref": "329", "gtype": "parking_position"}, "geometry": {"type": "Point", "coordinates": [11.802838, 48.352921]}}, {"type": "Feature", "properties": {"kind": "gate", "ref": "330", "gtype": "parking_position"}, "geometry": {"type": "Point", "coordinates": [11.802908, 48.352477]}}, {"type": "Feature", "properties": {"kind": "gate", "ref": "318", "gtype": "parking_position"}, "geometry": {"type": "Point", "coordinates": [11.800464, 48.352457]}}, {"type": "Feature", "properties": {"kind": "gate", "ref": "318B", "gtype": "parking_position"}, "geometry": {"type": "Point", "coordinates": [11.800572, 48.352263]}}, {"type": "Feature", "properties": {"kind": "gate", "ref": "256", "gtype": "parking_position"}, "geometry": {"type": "Point", "coordinates": [11.797639, 48.352076]}}, {"type": "Feature", "properties": {"kind": "gate", "ref": "244", "gtype": "parking_position"}, "geometry": {"type": "Point", "coordinates": [11.796777, 48.357295]}}, {"type": "Feature", "properties": {"kind": "gate", "ref": "245", "gtype": "parking_position"}, "geometry": {"type": "Point", "coordinates": [11.796845, 48.356925]}}, {"type": "Feature", "properties": {"kind": "gate", "ref": "246", "gtype": "parking_position"}, "geometry": {"type": "Point", "coordinates": [11.796907, 48.356548]}}, {"type": "Feature", "properties": {"kind": "gate", "ref": "247", "gtype": "parking_position"}, "geometry": {"type": "Point", "coordinates": [11.796969, 48.356183]}}, {"type": "Feature", "properties": {"kind": "gate", "ref": "248A", "gtype": "parking_position"}, "geometry": {"type": "Point", "coordinates": [11.797033, 48.355822]}}, {"type": "Feature", "properties": {"kind": "gate", "ref": "248B", "gtype": "parking_position"}, "geometry": {"type": "Point", "coordinates": [11.797053, 48.355732]}}, {"type": "Feature", "properties": {"kind": "gate", "ref": "249A", "gtype": "parking_position"}, "geometry": {"type": "Point", "coordinates": [11.797119, 48.355317]}}, {"type": "Feature", "properties": {"kind": "gate", "ref": "249B", "gtype": "parking_position"}, "geometry": {"type": "Point", "coordinates": [11.797141, 48.355201]}}, {"type": "Feature", "properties": {"kind": "gate", "ref": "250", "gtype": "parking_position"}, "geometry": {"type": "Point", "coordinates": [11.797229, 48.354695]}}, {"type": "Feature", "properties": {"kind": "gate", "ref": "251A", "gtype": "parking_position"}, "geometry": {"type": "Point", "coordinates": [11.797315, 48.35418]}}, {"type": "Feature", "properties": {"kind": "gate", "ref": "251B", "gtype": "parking_position"}, "geometry": {"type": "Point", "coordinates": [11.797333, 48.354062]}}, {"type": "Feature", "properties": {"kind": "gate", "ref": "252B", "gtype": "parking_position"}, "geometry": {"type": "Point", "coordinates": [11.797426, 48.353559]}}, {"type": "Feature", "properties": {"kind": "gate", "ref": "252A", "gtype": "parking_position"}, "geometry": {"type": "Point", "coordinates": [11.79741, 48.35364]}}, {"type": "Feature", "properties": {"kind": "gate", "ref": "254", "gtype": "parking_position"}, "geometry": {"type": "Point", "coordinates": [11.797558, 48.352812]}}, {"type": "Feature", "properties": {"kind": "gate", "ref": "253", "gtype": "parking_position"}, "geometry": {"type": "Point", "coordinates": [11.797492, 48.353186]}}, {"type": "Feature", "properties": {"kind": "gate", "ref": "255", "gtype": "parking_position"}, "geometry": {"type": "Point", "coordinates": [11.797618, 48.352445]}}, {"type": "Feature", "properties": {"kind": "gate", "ref": "234", "gtype": "parking_position"}, "geometry": {"type": "Point", "coordinates": [11.79197, 48.349972]}}, {"type": "Feature", "properties": {"kind": "gate", "ref": "233", "gtype": "parking_position"}, "geometry": {"type": "Point", "coordinates": [11.791912, 48.350302]}}, {"type": "Feature", "properties": {"kind": "gate", "ref": "232", "gtype": "parking_position"}, "geometry": {"type": "Point", "coordinates": [11.791858, 48.350626]}}, {"type": "Feature", "properties": {"kind": "gate", "ref": "231", "gtype": "parking_position"}, "geometry": {"type": "Point", "coordinates": [11.791802, 48.350948]}}, {"type": "Feature", "properties": {"kind": "gate", "ref": "201A", "gtype": "parking_position"}, "geometry": {"type": "Point", "coordinates": [11.792354, 48.358924]}}, {"type": "Feature", "properties": {"kind": "gate", "ref": "202A", "gtype": "parking_position"}, "geometry": {"type": "Point", "coordinates": [11.792539, 48.358519]}}, {"type": "Feature", "properties": {"kind": "gate", "ref": "202B", "gtype": "parking_position"}, "geometry": {"type": "Point", "coordinates": [11.792559, 48.358429]}}, {"type": "Feature", "properties": {"kind": "gate", "ref": "203", "gtype": "parking_position"}, "geometry": {"type": "Point", "coordinates": [11.792627, 48.358171]}}, {"type": "Feature", "properties": {"kind": "gate", "ref": "204A", "gtype": "parking_position"}, "geometry": {"type": "Point", "coordinates": [11.792578, 48.357894]}}, {"type": "Feature", "properties": {"kind": "gate", "ref": "204B", "gtype": "parking_position"}, "geometry": {"type": "Point", "coordinates": [11.792595, 48.357817]}}, {"type": "Feature", "properties": {"kind": "gate", "ref": "205A", "gtype": "parking_position"}, "geometry": {"type": "Point", "coordinates": [11.792726, 48.357487]}}, {"type": "Feature", "properties": {"kind": "gate", "ref": "205B", "gtype": "parking_position"}, "geometry": {"type": "Point", "coordinates": [11.79272, 48.357408]}}, {"type": "Feature", "properties": {"kind": "gate", "ref": "206", "gtype": "parking_position"}, "geometry": {"type": "Point", "coordinates": [11.792808, 48.357139]}}, {"type": "Feature", "properties": {"kind": "gate", "ref": "205X", "gtype": "parking_position"}, "geometry": {"type": "Point", "coordinates": [11.792728, 48.35733]}}, {"type": "Feature", "properties": {"kind": "gate", "ref": "207A", "gtype": "parking_position"}, "geometry": {"type": "Point", "coordinates": [11.792753, 48.356923]}}, {"type": "Feature", "properties": {"kind": "gate", "ref": "207B", "gtype": "parking_position"}, "geometry": {"type": "Point", "coordinates": [11.792769, 48.356792]}}, {"type": "Feature", "properties": {"kind": "gate", "ref": "208", "gtype": "parking_position"}, "geometry": {"type": "Point", "coordinates": [11.792904, 48.356451]}}, {"type": "Feature", "properties": {"kind": "gate", "ref": "207X", "gtype": "parking_position"}, "geometry": {"type": "Point", "coordinates": [11.792852, 48.35673]}}, {"type": "Feature", "properties": {"kind": "gate", "ref": "209A", "gtype": "parking_position"}, "geometry": {"type": "Point", "coordinates": [11.792913, 48.356027]}}, {"type": "Feature", "properties": {"kind": "gate", "ref": "209B", "gtype": "parking_position"}, "geometry": {"type": "Point", "coordinates": [11.792917, 48.355959]}}, {"type": "Feature", "properties": {"kind": "gate", "ref": "210A", "gtype": "parking_position"}, "geometry": {"type": "Point", "coordinates": [11.793024, 48.355613]}}, {"type": "Feature", "properties": {"kind": "gate", "ref": "210B", "gtype": "parking_position"}, "geometry": {"type": "Point", "coordinates": [11.793074, 48.355485]}}, {"type": "Feature", "properties": {"kind": "gate", "ref": "211", "gtype": "parking_position"}, "geometry": {"type": "Point", "coordinates": [11.793123, 48.355278]}}, {"type": "Feature", "properties": {"kind": "gate", "ref": "212A", "gtype": "parking_position"}, "geometry": {"type": "Point", "coordinates": [11.79308, 48.354998]}}, {"type": "Feature", "properties": {"kind": "gate", "ref": "212B", "gtype": "parking_position"}, "geometry": {"type": "Point", "coordinates": [11.793102, 48.354914]}}, {"type": "Feature", "properties": {"kind": "gate", "ref": "213A", "gtype": "parking_position"}, "geometry": {"type": "Point", "coordinates": [11.793202, 48.354579]}}, {"type": "Feature", "properties": {"kind": "gate", "ref": "213B", "gtype": "parking_position"}, "geometry": {"type": "Point", "coordinates": [11.793212, 48.354508]}}, {"type": "Feature", "properties": {"kind": "gate", "ref": "214", "gtype": "parking_position"}, "geometry": {"type": "Point", "coordinates": [11.793228, 48.354105]}}, {"type": "Feature", "properties": {"kind": "gate", "ref": "215A", "gtype": "parking_position"}, "geometry": {"type": "Point", "coordinates": [11.793363, 48.35356]}}, {"type": "Feature", "properties": {"kind": "gate", "ref": "215B", "gtype": "parking_position"}, "geometry": {"type": "Point", "coordinates": [11.793375, 48.353493]}}, {"type": "Feature", "properties": {"kind": "gate", "ref": "216", "gtype": "parking_position"}, "geometry": {"type": "Point", "coordinates": [11.793411, 48.353064]}}, {"type": "Feature", "properties": {"kind": "gate", "ref": "217A", "gtype": "parking_position"}, "geometry": {"type": "Point", "coordinates": [11.793517, 48.35273]}}, {"type": "Feature", "properties": {"kind": "gate", "ref": "217B", "gtype": "parking_position"}, "geometry": {"type": "Point", "coordinates": [11.793567, 48.35259]}}, {"type": "Feature", "properties": {"kind": "gate", "ref": "218", "gtype": "parking_position"}, "geometry": {"type": "Point", "coordinates": [11.793598, 48.352371]}}, {"type": "Feature", "properties": {"kind": "gate", "ref": "219A", "gtype": "parking_position"}, "geometry": {"type": "Point", "coordinates": [11.793578, 48.3521]}}, {"type": "Feature", "properties": {"kind": "gate", "ref": "219B", "gtype": "parking_position"}, "geometry": {"type": "Point", "coordinates": [11.793587, 48.35204]}}, {"type": "Feature", "properties": {"kind": "gate", "ref": "220A", "gtype": "parking_position"}, "geometry": {"type": "Point", "coordinates": [11.793691, 48.3517]}}, {"type": "Feature", "properties": {"kind": "gate", "ref": "220B", "gtype": "parking_position"}, "geometry": {"type": "Point", "coordinates": [11.793701, 48.351631]}}, {"type": "Feature", "properties": {"kind": "gate", "ref": "221", "gtype": "parking_position"}, "geometry": {"type": "Point", "coordinates": [11.793775, 48.351352]}}, {"type": "Feature", "properties": {"kind": "gate", "ref": "222A", "gtype": "parking_position"}, "geometry": {"type": "Point", "coordinates": [11.793748, 48.351143]}}, {"type": "Feature", "properties": {"kind": "gate", "ref": "222B", "gtype": "parking_position"}, "geometry": {"type": "Point", "coordinates": [11.793767, 48.351]}}, {"type": "Feature", "properties": {"kind": "gate", "ref": "223A", "gtype": "parking_position"}, "geometry": {"type": "Point", "coordinates": [11.79387, 48.350667]}}, {"type": "Feature", "properties": {"kind": "gate", "ref": "223B", "gtype": "parking_position"}, "geometry": {"type": "Point", "coordinates": [11.793881, 48.350577]}}, {"type": "Feature", "properties": {"kind": "gate", "ref": "224A", "gtype": "parking_position"}, "geometry": {"type": "Point", "coordinates": [11.793904, 48.35022]}}, {"type": "Feature", "properties": {"kind": "gate", "ref": "224B", "gtype": "parking_position"}, "geometry": {"type": "Point", "coordinates": [11.793911, 48.35017]}}, {"type": "Feature", "properties": {"kind": "gate", "ref": "", "gtype": "parking_position"}, "geometry": {"type": "Point", "coordinates": [11.804445, 48.354257]}}, {"type": "Feature", "properties": {"kind": "gate", "ref": "", "gtype": "parking_position"}, "geometry": {"type": "Point", "coordinates": [11.803053, 48.358037]}}, {"type": "Feature", "properties": {"kind": "gate", "ref": "", "gtype": "parking_position"}, "geometry": {"type": "Point", "coordinates": [11.803598, 48.358062]}}, {"type": "Feature", "properties": {"kind": "gate", "ref": "", "gtype": "parking_position"}, "geometry": {"type": "Point", "coordinates": [11.804142, 48.3581]}}, {"type": "Feature", "properties": {"kind": "gate", "ref": "", "gtype": "parking_position"}, "geometry": {"type": "Point", "coordinates": [11.804679, 48.358148]}}, {"type": "Feature", "properties": {"kind": "gate", "ref": "", "gtype": "parking_position"}, "geometry": {"type": "Point", "coordinates": [11.805223, 48.358188]}}, {"type": "Feature", "properties": {"kind": "gate", "ref": "", "gtype": "parking_position"}, "geometry": {"type": "Point", "coordinates": [11.80526, 48.359365]}}, {"type": "Feature", "properties": {"kind": "gate", "ref": "163Y", "gtype": "parking_position"}, "geometry": {"type": "Point", "coordinates": [11.779547, 48.350125]}}, {"type": "Feature", "properties": {"kind": "gate", "ref": "161Y", "gtype": "parking_position"}, "geometry": {"type": "Point", "coordinates": [11.779305, 48.351212]}}, {"type": "Feature", "properties": {"kind": "gate", "ref": "", "gtype": "parking_position"}, "geometry": {"type": "Point", "coordinates": [11.80414, 48.352282]}}, {"type": "Feature", "properties": {"kind": "gate", "ref": "", "gtype": "parking_position"}, "geometry": {"type": "Point", "coordinates": [11.804754, 48.352329]}}, {"type": "Feature", "properties": {"kind": "gate", "ref": "", "gtype": "parking_position"}, "geometry": {"type": "Point", "coordinates": [11.805992, 48.352421]}}, {"type": "Feature", "properties": {"kind": "gate", "ref": "", "gtype": "parking_position"}, "geometry": {"type": "Point", "coordinates": [11.80661, 48.352468]}}, {"type": "Feature", "properties": {"kind": "gate", "ref": "", "gtype": "parking_position"}, "geometry": {"type": "Point", "coordinates": [11.807224, 48.352514]}}, {"type": "Feature", "properties": {"kind": "gate", "ref": "", "gtype": "parking_position"}, "geometry": {"type": "Point", "coordinates": [11.807841, 48.352565]}}, {"type": "Feature", "properties": {"kind": "gate", "ref": "", "gtype": "parking_position"}, "geometry": {"type": "Point", "coordinates": [11.808457, 48.352612]}}, {"type": "Feature", "properties": {"kind": "gate", "ref": "", "gtype": "parking_position"}, "geometry": {"type": "Point", "coordinates": [11.809072, 48.352659]}}, {"type": "Feature", "properties": {"kind": "gate", "ref": "", "gtype": "parking_position"}, "geometry": {"type": "Point", "coordinates": [11.809691, 48.352704]}}, {"type": "Feature", "properties": {"kind": "gate", "ref": "", "gtype": "parking_position"}, "geometry": {"type": "Point", "coordinates": [11.810306, 48.352755]}}, {"type": "Feature", "properties": {"kind": "gate", "ref": "", "gtype": "parking_position"}, "geometry": {"type": "Point", "coordinates": [11.805375, 48.352378]}}, {"type": "Feature", "properties": {"kind": "gate", "ref": "", "gtype": "parking_position"}, "geometry": {"type": "Point", "coordinates": [11.80481, 48.350582]}}, {"type": "Feature", "properties": {"kind": "gate", "ref": "", "gtype": "parking_position"}, "geometry": {"type": "Point", "coordinates": [11.805678, 48.350657]}}, {"type": "Feature", "properties": {"kind": "gate", "ref": "", "gtype": "parking_position"}, "geometry": {"type": "Point", "coordinates": [11.805979, 48.350679]}}, {"type": "Feature", "properties": {"kind": "gate", "ref": "", "gtype": "parking_position"}, "geometry": {"type": "Point", "coordinates": [11.806263, 48.350789]}}, {"type": "Feature", "properties": {"kind": "gate", "ref": "", "gtype": "parking_position"}, "geometry": {"type": "Point", "coordinates": [11.806823, 48.350757]}}, {"type": "Feature", "properties": {"kind": "gate", "ref": "", "gtype": "parking_position"}, "geometry": {"type": "Point", "coordinates": [11.807092, 48.35078]}}, {"type": "Feature", "properties": {"kind": "gate", "ref": "", "gtype": "parking_position"}, "geometry": {"type": "Point", "coordinates": [11.807358, 48.350865]}}, {"type": "Feature", "properties": {"kind": "gate", "ref": "", "gtype": "parking_position"}, "geometry": {"type": "Point", "coordinates": [11.807906, 48.350824]}}, {"type": "Feature", "properties": {"kind": "gate", "ref": "", "gtype": "parking_position"}, "geometry": {"type": "Point", "coordinates": [11.808181, 48.350846]}}, {"type": "Feature", "properties": {"kind": "gate", "ref": "", "gtype": "parking_position"}, "geometry": {"type": "Point", "coordinates": [11.808434, 48.350964]}}, {"type": "Feature", "properties": {"kind": "gate", "ref": "", "gtype": "parking_position"}, "geometry": {"type": "Point", "coordinates": [11.808992, 48.350926]}}, {"type": "Feature", "properties": {"kind": "gate", "ref": "", "gtype": "parking_position"}, "geometry": {"type": "Point", "coordinates": [11.809268, 48.35093]}}, {"type": "Feature", "properties": {"kind": "gate", "ref": "", "gtype": "parking_position"}, "geometry": {"type": "Point", "coordinates": [11.809522, 48.351041]}}, {"type": "Feature", "properties": {"kind": "gate", "ref": "", "gtype": "parking_position"}, "geometry": {"type": "Point", "coordinates": [11.810105, 48.351086]}}]}